address,ip,port,is_valid,latency_ms,net_type,net_type_en,country,region,city,isp,location,source,category,validation_error
3.92.137.124:443,3.92.137.124,443,True,72.31,,unknown,通用,,,,通用,results,local-general,
3.109.65.43:443,3.109.65.43,443,True,231.62,,unknown,通用,,,,通用,results,local-general,
4.188.2.252:443,4.188.2.252,443,True,238.21,,unknown,通用,,,,通用,results,local-general,
4.213.225.50:443,4.213.225.50,443,True,236.73,,unknown,通用,,,,通用,results,local-general,
4.227.112.195:443,4.227.112.195,443,True,21.15,,unknown,通用,,,,通用,results,local-general,
5.178.98.214:443,5.178.98.214,443,True,231.25,,unknown,通用,,,,通用,results,local-general,
8.20.113.68:443,8.20.113.68,443,True,23.81,,unknown,通用,,,,通用,results,local-general,
8.131.68.15:443,8.131.68.15,443,True,207.38,,unknown,通用,,,,通用,results,local-general,
8.133.164.218:443,8.133.164.218,443,True,217.58,,unknown,通用,,,,通用,results,local-general,
8.210.0.148:1080,8.210.0.148,1080,True,163.68,,unknown,韩国,,,,韩国,ResultsAHT,local-AHT,
8.210.1.127:1080,8.210.1.127,1080,True,163.76,,unknown,韩国,,,,韩国,ResultsAHT,local-AHT,
8.210.2.5:1080,8.210.2.5,1080,True,165.21,,unknown,韩国,,,,韩国,ResultsAHT,local-AHT,
8.210.10.250:5555,8.210.10.250,5555,False,,,unknown,韩国,,,,韩国,ResultsAHT,local-AHT,Refused
8.210.27.112:1080,8.210.27.112,1080,True,165.5,,unknown,韩国,,,,韩国,ResultsAHT,local-AHT,
8.210.28.0:1080,8.210.28.0,1080,False,,,unknown,韩国,,,,韩国,ResultsAHT,local-AHT,Refused
8.210.36.40:5555,8.210.36.40,5555,False,,,unknown,韩国,,,,韩国,ResultsAHT,local-AHT,Refused
8.210.36.147:5555,8.210.36.147,5555,True,159.3,,unknown,韩国,,,,韩国,ResultsAHT,local-AHT,
8.210.38.247:5555,8.210.38.247,5555,False,,,unknown,韩国,,,,韩国,ResultsAHT,local-AHT,Refused
8.210.80.208:8888,8.210.80.208,8888,False,,,unknown,韩国,,,,韩国,ResultsAHT,local-AHT,Refused
8.210.81.24:1080,8.210.81.24,1080,True,164.61,,unknown,韩国,,,,韩国,ResultsAHT,local-AHT,
8.210.81.245:1080,8.210.81.245,1080,True,163.58,,unknown,韩国,,,,韩国,ResultsAHT,local-AHT,
8.210.88.135:5555,8.210.88.135,5555,True,165.45,,unknown,韩国,,,,韩国,ResultsAHT,local-AHT,
8.210.89.67:1080,8.210.89.67,1080,True,162.93,,unknown,韩国,,,,韩国,ResultsAHT,local-AHT,
8.210.90.51:5555,8.210.90.51,5555,False,,,unknown,韩国,,,,韩国,ResultsAHT,local-AHT,Refused
8.210.90.181:1080,8.210.90.181,1080,True,163.46,,unknown,韩国,,,,韩国,ResultsAHT,local-AHT,
8.210.92.32:1080,8.210.92.32,1080,False,,,unknown,韩国,,,,韩国,ResultsAHT,local-AHT,Timeout
8.210.101.76:5555,8.210.101.76,5555,False,,,unknown,韩国,,,,韩国,ResultsAHT,local-AHT,Refused
8.210.104.21:1080,8.210.104.21,1080,True,167.77,,unknown,韩国,,,,韩国,ResultsAHT,local-AHT,
8.210.106.203:1080,8.210.106.203,1080,True,159.83,,unknown,韩国,,,,韩国,ResultsAHT,local-AHT,
8.210.107.234:1080,8.210.107.234,1080,True,166.13,,unknown,韩国,,,,韩国,ResultsAHT,local-AHT,
8.210.108.208:1080,8.210.108.208,1080,True,166.61,,unknown,韩国,,,,韩国,ResultsAHT,local-AHT,
8.210.109.161:1080,8.210.109.161,1080,True,165.78,,unknown,韩国,,,,韩国,ResultsAHT,local-AHT,
8.210.110.159:1080,8.210.110.159,1080,True,165.69,,unknown,韩国,,,,韩国,ResultsAHT,local-AHT,
8.210.110.204:5555,8.210.110.204,5555,True,166.04,,unknown,韩国,,,,韩国,ResultsAHT,local-AHT,
8.210.112.229:1080,8.210.112.229,1080,True,166.07,,unknown,韩国,,,,韩国,ResultsAHT,local-AHT,
8.210.117.24:5555,8.210.117.24,5555,False,,,unknown,韩国,,,,韩国,ResultsAHT,local-AHT,Refused
8.210.118.9:1080,8.210.118.9,1080,True,167.13,,unknown,韩国,,,,韩国,ResultsAHT,local-AHT,
8.210.119.160:1080,8.210.119.160,1080,True,166.02,,unknown,韩国,,,,韩国,ResultsAHT,local-AHT,
8.210.128.93:1080,8.210.128.93,1080,False,,,unknown,韩国,,,,韩国,ResultsAHT,local-AHT,Refused
8.210.132.239:1080,8.210.132.239,1080,False,,,unknown,韩国,,,,韩国,ResultsAHT,local-AHT,Timeout
8.210.138.192:5555,8.210.138.192,5555,False,,,unknown,韩国,,,,韩国,ResultsAHT,local-AHT,Refused
8.210.142.142:1080,8.210.142.142,1080,False,,,unknown,韩国,,,,韩国,ResultsAHT,local-AHT,Timeout
8.210.144.204:1080,8.210.144.204,1080,False,,,unknown,韩国,,,,韩国,ResultsAHT,local-AHT,Timeout
8.210.145.44:1080,8.210.145.44,1080,False,,,unknown,韩国,,,,韩国,ResultsAHT,local-AHT,Refused
8.210.151.31:1080,8.210.151.31,1080,False,,,unknown,韩国,,,,韩国,ResultsAHT,local-AHT,Refused
8.210.151.243:1080,8.210.151.243,1080,False,,,unknown,韩国,,,,韩国,ResultsAHT,local-AHT,Timeout
8.210.153.222:1080,8.210.153.222,1080,False,,,unknown,韩国,,,,韩国,ResultsAHT,local-AHT,Timeout
8.210.154.185:1080,8.210.154.185,1080,False,,,unknown,韩国,,,,韩国,ResultsAHT,local-AHT,Refused
8.210.155.98:5555,8.210.155.98,5555,False,,,unknown,韩国,,,,韩国,ResultsAHT,local-AHT,Refused
8.210.161.207:5555,8.210.161.207,5555,False,,,unknown,韩国,,,,韩国,ResultsAHT,local-AHT,Refused
8.210.163.163:5555,8.210.163.163,5555,False,,,unknown,韩国,,,,韩国,ResultsAHT,local-AHT,Refused
8.210.197.22:5555,8.210.197.22,5555,False,,,unknown,韩国,,,,韩国,ResultsAHT,local-AHT,Refused
8.210.210.198:5555,8.210.210.198,5555,False,,,unknown,韩国,,,,韩国,ResultsAHT,local-AHT,Refused
8.210.217.190:5555,8.210.217.190,5555,False,,,unknown,韩国,,,,韩国,ResultsAHT,local-AHT,Refused
8.210.227.144:5555,8.210.227.144,5555,False,,,unknown,韩国,,,,韩国,ResultsAHT,local-AHT,Refused
8.210.245.62:1080,8.210.245.62,1080,False,,,unknown,韩国,,,,韩国,ResultsAHT,local-AHT,Timeout
8.210.249.242:1080,8.210.249.242,1080,False,,,unknown,韩国,,,,韩国,ResultsAHT,local-AHT,Refused
8.210.251.151:1080,8.210.251.151,1080,False,,,unknown,韩国,,,,韩国,ResultsAHT,local-AHT,Refused
8.210.252.218:1080,8.210.252.218,1080,False,,,unknown,韩国,,,,韩国,ResultsAHT,local-AHT,Refused
8.210.254.72:5555,8.210.254.72,5555,True,161.97,,unknown,韩国,,,,韩国,ResultsAHT,local-AHT,
8.210.255.185:1080,8.210.255.185,1080,True,168.27,,unknown,韩国,,,,韩国,ResultsAHT,local-AHT,
8.212.131.125:1080,8.212.131.125,1080,False,,,unknown,韩国,,,,韩国,ResultsAHT,local-AHT,Timeout
8.213.132.37:1080,8.213.132.37,1080,False,,,unknown,韩国,,,,韩国,ResultsAHT,local-AHT,Timeout
8.213.133.204:1080,8.213.133.204,1080,False,,,unknown,韩国,,,,韩国,ResultsAHT,local-AHT,Refused
8.213.145.117:8888,8.213.145.117,8888,False,,,unknown,韩国,,,,韩国,ResultsAHT,local-AHT,Refused
8.213.148.131:1080,8.213.148.131,1080,False,,,unknown,韩国,,,,韩国,ResultsAHT,local-AHT,Timeout
8.213.148.174:1080,8.213.148.174,1080,False,,,unknown,韩国,,,,韩国,ResultsAHT,local-AHT,Timeout
8.213.159.156:1080,8.213.159.156,1080,False,,,unknown,韩国,,,,韩国,ResultsAHT,local-AHT,Refused
8.213.239.242:1080,8.213.239.242,1080,False,,,unknown,韩国,,,,韩国,ResultsAHT,local-AHT,Refused
8.217.0.62:1080,8.217.0.62,1080,True,177.87,,unknown,韩国,,,,韩国,ResultsAHT,local-AHT,
8.217.0.164:1080,8.217.0.164,1080,True,179.8,,unknown,韩国,,,,韩国,ResultsAHT,local-AHT,
8.217.1.173:1080,8.217.1.173,1080,True,178.32,,unknown,韩国,,,,韩国,ResultsAHT,local-AHT,
8.217.1.204:1080,8.217.1.204,1080,True,177.81,,unknown,韩国,,,,韩国,ResultsAHT,local-AHT,
8.217.8.12:5555,8.217.8.12,5555,False,,,unknown,韩国,,,,韩国,ResultsAHT,local-AHT,Refused
8.217.9.225:1080,8.217.9.225,1080,False,,,unknown,韩国,,,,韩国,ResultsAHT,local-AHT,Refused
8.217.13.199:5555,8.217.13.199,5555,False,,,unknown,韩国,,,,韩国,ResultsAHT,local-AHT,Refused
8.217.17.226:5555,8.217.17.226,5555,False,,,unknown,韩国,,,,韩国,ResultsAHT,local-AHT,Refused
8.217.80.219:1080,8.217.80.219,1080,True,177.79,,unknown,韩国,,,,韩国,ResultsAHT,local-AHT,
8.217.81.251:1080,8.217.81.251,1080,True,169.38,,unknown,韩国,,,,韩国,ResultsAHT,local-AHT,
8.217.82.136:8888,8.217.82.136,8888,False,,,unknown,韩国,,,,韩国,ResultsAHT,local-AHT,Timeout
8.217.83.221:1080,8.217.83.221,1080,True,178.61,,unknown,韩国,,,,韩国,ResultsAHT,local-AHT,
8.217.84.188:1080,8.217.84.188,1080,True,178.18,,unknown,韩国,,,,韩国,ResultsAHT,local-AHT,
8.217.85.95:1080,8.217.85.95,1080,True,177.76,,unknown,韩国,,,,韩国,ResultsAHT,local-AHT,
8.217.85.209:1080,8.217.85.209,1080,True,178.61,,unknown,韩国,,,,韩国,ResultsAHT,local-AHT,
8.217.86.183:1080,8.217.86.183,1080,True,178.13,,unknown,韩国,,,,韩国,ResultsAHT,local-AHT,
8.217.86.198:1080,8.217.86.198,1080,True,178.58,,unknown,韩国,,,,韩国,ResultsAHT,local-AHT,
8.217.87.143:1080,8.217.87.143,1080,True,178.21,,unknown,韩国,,,,韩国,ResultsAHT,local-AHT,
8.217.87.222:1080,8.217.87.222,1080,True,167.18,,unknown,韩国,,,,韩国,ResultsAHT,local-AHT,
8.217.88.47:1080,8.217.88.47,1080,True,178.21,,unknown,韩国,,,,韩国,ResultsAHT,local-AHT,
8.217.88.198:1080,8.217.88.198,1080,False,,,unknown,韩国,,,,韩国,ResultsAHT,local-AHT,Refused
8.217.88.234:1080,8.217.88.234,1080,True,178.51,,unknown,韩国,,,,韩国,ResultsAHT,local-AHT,
8.217.89.21:1080,8.217.89.21,1080,True,178.48,,unknown,韩国,,,,韩国,ResultsAHT,local-AHT,
8.217.89.51:1080,8.217.89.51,1080,True,178.49,,unknown,韩国,,,,韩国,ResultsAHT,local-AHT,
8.217.89.85:1080,8.217.89.85,1080,True,178.51,,unknown,韩国,,,,韩国,ResultsAHT,local-AHT,
8.217.89.162:1080,8.217.89.162,1080,True,167.18,,unknown,韩国,,,,韩国,ResultsAHT,local-AHT,
8.217.90.134:1080,8.217.90.134,1080,True,178.82,,unknown,韩国,,,,韩国,ResultsAHT,local-AHT,
8.217.93.13:1080,8.217.93.13,1080,True,178.85,,unknown,韩国,,,,韩国,ResultsAHT,local-AHT,
8.217.93.36:1080,8.217.93.36,1080,True,166.49,,unknown,韩国,,,,韩国,ResultsAHT,local-AHT,
8.217.93.42:1080,8.217.93.42,1080,True,178.33,,unknown,韩国,,,,韩国,ResultsAHT,local-AHT,
8.217.94.103:1080,8.217.94.103,1080,True,178.81,,unknown,韩国,,,,韩国,ResultsAHT,local-AHT,
8.217.94.129:1080,8.217.94.129,1080,True,159.75,,unknown,韩国,,,,韩国,ResultsAHT,local-AHT,
8.217.94.174:1080,8.217.94.174,1080,True,158.52,,unknown,韩国,,,,韩国,ResultsAHT,local-AHT,
8.217.97.108:1080,8.217.97.108,1080,True,158.43,,unknown,韩国,,,,韩国,ResultsAHT,local-AHT,
8.217.97.218:1080,8.217.97.218,1080,True,157.62,,unknown,韩国,,,,韩国,ResultsAHT,local-AHT,
8.217.98.134:1080,8.217.98.134,1080,True,158.63,,unknown,韩国,,,,韩国,ResultsAHT,local-AHT,
8.217.103.91:1080,8.217.103.91,1080,True,158.48,,unknown,韩国,,,,韩国,ResultsAHT,local-AHT,
8.217.103.142:1080,8.217.103.142,1080,True,158.77,,unknown,韩国,,,,韩国,ResultsAHT,local-AHT,
8.217.104.110:1080,8.217.104.110,1080,True,155.02,,unknown,韩国,,,,韩国,ResultsAHT,local-AHT,
8.217.106.190:5555,8.217.106.190,5555,False,,,unknown,韩国,,,,韩国,ResultsAHT,local-AHT,Refused
8.217.106.196:8888,8.217.106.196,8888,False,,,unknown,韩国,,,,韩国,ResultsAHT,local-AHT,Timeout
8.217.114.185:1080,8.217.114.185,1080,False,,,unknown,韩国,,,,韩国,ResultsAHT,local-AHT,Refused
8.217.116.208:5555,8.217.116.208,5555,False,,,unknown,韩国,,,,韩国,ResultsAHT,local-AHT,Refused
8.217.116.231:1080,8.217.116.231,1080,True,158.38,,unknown,韩国,,,,韩国,ResultsAHT,local-AHT,
8.217.121.141:1080,8.217.121.141,1080,True,158.53,,unknown,韩国,,,,韩国,ResultsAHT,local-AHT,
8.217.122.50:1080,8.217.122.50,1080,True,158.88,,unknown,韩国,,,,韩国,ResultsAHT,local-AHT,
8.217.122.167:1080,8.217.122.167,1080,True,158.61,,unknown,韩国,,,,韩国,ResultsAHT,local-AHT,
8.217.125.154:1080,8.217.125.154,1080,True,158.94,,unknown,韩国,,,,韩国,ResultsAHT,local-AHT,
8.217.125.237:1080,8.217.125.237,1080,True,154.1,,unknown,韩国,,,,韩国,ResultsAHT,local-AHT,
8.217.126.80:1080,8.217.126.80,1080,True,159.06,,unknown,韩国,,,,韩国,ResultsAHT,local-AHT,
8.217.126.126:7777,8.217.126.126,7777,False,,,unknown,韩国,,,,韩国,ResultsAHT,local-AHT,Refused
8.217.153.114:1080,8.217.153.114,1080,False,,,unknown,韩国,,,,韩国,ResultsAHT,local-AHT,Timeout
8.217.193.255:1080,8.217.193.255,1080,True,158.98,,unknown,韩国,,,,韩国,ResultsAHT,local-AHT,
8.217.196.112:1080,8.217.196.112,1080,True,158.25,,unknown,韩国,,,,韩国,ResultsAHT,local-AHT,
8.217.241.10:7777,8.217.241.10,7777,False,,,unknown,韩国,,,,韩国,ResultsAHT,local-AHT,Timeout
8.217.242.151:7777,8.217.242.151,7777,False,,,unknown,韩国,,,,韩国,ResultsAHT,local-AHT,Timeout
8.217.247.64:7777,8.217.247.64,7777,False,,,unknown,韩国,,,,韩国,ResultsAHT,local-AHT,Timeout
8.218.7.131:5555,8.218.7.131,5555,False,,,unknown,韩国,,,,韩国,ResultsAHT,local-AHT,Refused
8.218.40.151:5555,8.218.40.151,5555,False,,,unknown,韩国,,,,韩国,ResultsAHT,local-AHT,Refused
8.218.85.189:5555,8.218.85.189,5555,False,,,unknown,韩国,,,,韩国,ResultsAHT,local-AHT,Refused
8.218.117.246:1080,8.218.117.246,1080,True,156.8,,unknown,韩国,,,,韩国,ResultsAHT,local-AHT,
8.218.118.150:5555,8.218.118.150,5555,False,,,unknown,韩国,,,,韩国,ResultsAHT,local-AHT,Refused
8.218.130.66:1080,8.218.130.66,1080,True,159.58,,unknown,韩国,,,,韩国,ResultsAHT,local-AHT,
8.218.141.182:1080,8.218.141.182,1080,True,158.82,,unknown,韩国,,,,韩国,ResultsAHT,local-AHT,
8.218.150.171:5555,8.218.150.171,5555,False,,,unknown,韩国,,,,韩国,ResultsAHT,local-AHT,Refused
8.218.158.25:1080,8.218.158.25,1080,False,,,unknown,韩国,,,,韩国,ResultsAHT,local-AHT,Refused
8.218.159.70:1080,8.218.159.70,1080,False,,,unknown,韩国,,,,韩国,ResultsAHT,local-AHT,Timeout
8.218.189.67:1080,8.218.189.67,1080,False,,,unknown,韩国,,,,韩国,ResultsAHT,local-AHT,Refused
8.218.189.76:1080,8.218.189.76,1080,False,,,unknown,韩国,,,,韩国,ResultsAHT,local-AHT,Refused
8.218.197.154:5555,8.218.197.154,5555,False,,,unknown,韩国,,,,韩国,ResultsAHT,local-AHT,Refused
8.218.200.68:5555,8.218.200.68,5555,False,,,unknown,韩国,,,,韩国,ResultsAHT,local-AHT,Refused
8.218.225.148:1080,8.218.225.148,1080,False,,,unknown,韩国,,,,韩国,ResultsAHT,local-AHT,Refused
8.218.227.143:1080,8.218.227.143,1080,False,,,unknown,韩国,,,,韩国,ResultsAHT,local-AHT,Refused
8.218.228.52:1080,8.218.228.52,1080,True,158.64,,unknown,韩国,,,,韩国,ResultsAHT,local-AHT,
8.218.228.65:8888,8.218.228.65,8888,True,159.66,,unknown,韩国,,,,韩国,ResultsAHT,local-AHT,
8.218.229.51:1080,8.218.229.51,1080,True,158.53,,unknown,韩国,,,,韩国,ResultsAHT,local-AHT,
8.218.231.46:5555,8.218.231.46,5555,False,,,unknown,韩国,,,,韩国,ResultsAHT,local-AHT,Refused
8.218.233.13:1080,8.218.233.13,1080,False,,,unknown,韩国,,,,韩国,ResultsAHT,local-AHT,Refused
8.218.236.144:1080,8.218.236.144,1080,True,158.94,,unknown,韩国,,,,韩国,ResultsAHT,local-AHT,
8.218.236.158:1080,8.218.236.158,1080,True,159.25,,unknown,韩国,,,,韩国,ResultsAHT,local-AHT,
8.218.242.136:1080,8.218.242.136,1080,True,154.92,,unknown,韩国,,,,韩国,ResultsAHT,local-AHT,
8.218.242.151:1080,8.218.242.151,1080,True,158.52,,unknown,韩国,,,,韩国,ResultsAHT,local-AHT,
8.218.248.34:1080,8.218.248.34,1080,False,,,unknown,韩国,,,,韩国,ResultsAHT,local-AHT,Refused
8.218.248.86:1080,8.218.248.86,1080,True,165.95,,unknown,韩国,,,,韩国,ResultsAHT,local-AHT,
8.218.253.187:1080,8.218.253.187,1080,False,,,unknown,韩国,,,,韩国,ResultsAHT,local-AHT,Refused
8.219.77.141:443,8.219.77.141,443,True,181.79,,unknown,,,,,,bestproxy,proxy,
8.220.177.54:1080,8.220.177.54,1080,False,,,unknown,韩国,,,,韩国,ResultsAHT,local-AHT,Timeout
8.220.193.226:8888,8.220.193.226,8888,False,,,unknown,韩国,,,,韩国,ResultsAHT,local-AHT,Refused
8.220.194.5:1080,8.220.194.5,1080,False,,,unknown,韩国,,,,韩国,ResultsAHT,local-AHT,Refused
8.220.194.84:1080,8.220.194.84,1080,False,,,unknown,韩国,,,,韩国,ResultsAHT,local-AHT,Timeout
8.220.195.170:1080,8.220.195.170,1080,False,,,unknown,韩国,,,,韩国,ResultsAHT,local-AHT,Refused
8.220.198.7:1080,8.220.198.7,1080,False,,,unknown,韩国,,,,韩国,ResultsAHT,local-AHT,Timeout
8.220.201.22:1080,8.220.201.22,1080,False,,,unknown,韩国,,,,韩国,ResultsAHT,local-AHT,Refused
8.220.201.104:1080,8.220.201.104,1080,False,,,unknown,韩国,,,,韩国,ResultsAHT,local-AHT,Timeout
8.220.202.188:8888,8.220.202.188,8888,False,,,unknown,韩国,,,,韩国,ResultsAHT,local-AHT,Refused
8.220.203.54:1080,8.220.203.54,1080,False,,,unknown,韩国,,,,韩国,ResultsAHT,local-AHT,Refused
8.220.205.221:8888,8.220.205.221,8888,False,,,unknown,韩国,,,,韩国,ResultsAHT,local-AHT,Refused
8.220.206.85:1080,8.220.206.85,1080,False,,,unknown,韩国,,,,韩国,ResultsAHT,local-AHT,Timeout
8.220.208.95:1080,8.220.208.95,1080,False,,,unknown,韩国,,,,韩国,ResultsAHT,local-AHT,Timeout
8.220.209.201:8888,8.220.209.201,8888,False,,,unknown,韩国,,,,韩国,ResultsAHT,local-AHT,Timeout
8.220.213.135:8888,8.220.213.135,8888,True,129.52,,unknown,韩国,,,,韩国,ResultsAHT,local-AHT,
8.220.215.191:1080,8.220.215.191,1080,False,,,unknown,韩国,,,,韩国,ResultsAHT,local-AHT,Refused
8.220.223.91:1080,8.220.223.91,1080,False,,,unknown,韩国,,,,韩国,ResultsAHT,local-AHT,Refused
8.220.242.208:1080,8.220.242.208,1080,False,,,unknown,韩国,,,,韩国,ResultsAHT,local-AHT,Timeout
8.220.243.145:1080,8.220.243.145,1080,False,,,unknown,韩国,,,,韩国,ResultsAHT,local-AHT,Timeout
8.220.246.249:8888,8.220.246.249,8888,False,,,unknown,韩国,,,,韩国,ResultsAHT,local-AHT,Timeout
8.220.247.209:8888,8.220.247.209,8888,True,134.35,,unknown,韩国,,,,韩国,ResultsAHT,local-AHT,
8.222.180.85:1080,8.222.180.85,1080,True,173.49,,unknown,韩国,,,,韩国,ResultsAHT,local-AHT,
13.58.222.5:1080,13.58.222.5,1080,False,,机房,datacenter,美国,俄亥俄州,哥伦布,Amazon Technologies Inc.,美国 哥伦布,socks5-proxy,socks5,Refused
15.204.196.219:443,15.204.196.219,443,False,,,unknown,通用,,,,通用,results,local-general,Timeout
18.169.247.230:443,18.169.247.230,443,True,140.64,,unknown,通用,,,,通用,results,local-general,
18.253.112.174:443,18.253.112.174,443,True,60.31,,unknown,通用,,,,通用,results,local-general,
20.87.14.208:443,20.87.14.208,443,True,287.39,,unknown,通用,,,,通用,results,local-general,
20.89.45.135:443,20.89.45.135,443,True,105.75,,unknown,通用,,,,通用,results,local-general,
20.94.247.224:443,20.94.247.224,443,True,23.0,,unknown,通用,,,,通用,results,local-general,
20.103.207.25:443,20.103.207.25,443,True,151.77,,unknown,通用,,,,通用,results,local-general,
20.112.94.127:443,20.112.94.127,443,True,26.67,,unknown,通用,,,,通用,results,local-general,
20.192.2.50:443,20.192.2.50,443,True,236.7,,unknown,通用,,,,通用,results,local-general,
20.235.36.161:443,20.235.36.161,443,False,,,unknown,通用,,,,通用,results,local-general,Timeout
20.235.106.55:443,20.235.106.55,443,True,232.17,,unknown,通用,,,,通用,results,local-general,
27.150.23.190:1080,27.150.23.190,1080,True,215.43,,unknown,中国,,,,中国,ResultsCN,local-CN,
27.156.5.223:1080,27.156.5.223,1080,True,216.82,,unknown,中国,,,,中国,ResultsCN,local-CN,
27.156.14.166:1080,27.156.14.166,1080,True,220.02,,unknown,中国,,,,中国,ResultsCN,local-CN,
31.31.78.117:443,31.31.78.117,443,True,164.1,,unknown,通用,,,,通用,results,local-general,
31.46.42.248:443,31.46.42.248,443,True,166.89,,unknown,通用,,,,通用,results,local-general,
34.23.182.38:443,34.23.182.38,443,False,,,unknown,通用,,,,通用,results,local-general,Timeout
34.73.93.176:443,34.73.93.176,443,False,,,unknown,通用,,,,通用,results,local-general,Timeout
34.73.127.72:443,34.73.127.72,443,True,69.72,,unknown,通用,,,,通用,results,local-general,
34.74.83.195:443,34.74.83.195,443,True,69.96,,unknown,通用,,,,通用,results,local-general,
34.74.107.33:443,34.74.107.33,443,False,,,unknown,通用,,,,通用,results,local-general,Timeout
34.74.205.117:443,34.74.205.117,443,True,69.69,,unknown,通用,,,,通用,results,local-general,
34.75.149.113:443,34.75.149.113,443,False,,,unknown,通用,,,,通用,results,local-general,Timeout
34.93.13.41:443,34.93.13.41,443,True,225.68,,unknown,通用,,,,通用,results,local-general,
34.93.103.38:443,34.93.103.38,443,True,223.89,,unknown,通用,,,,通用,results,local-general,
35.139.204.210:443,35.139.204.210,443,False,,,unknown,通用,,,,通用,results,local-general,Timeout
35.187.237.178:443,35.187.237.178,443,True,177.07,,unknown,通用,,,,通用,results,local-general,
35.196.153.252:443,35.196.153.252,443,True,69.64,,unknown,通用,,,,通用,results,local-general,
35.206.199.195:443,35.206.199.195,443,True,137.59,,unknown,通用,,,,通用,results,local-general,
35.212.100.37:443,35.212.100.37,443,True,72.85,,unknown,通用,,,,通用,results,local-general,
35.212.218.13:58367,35.212.218.13,58367,True,25.71,机房,datacenter,美国,俄勒冈州,达尔斯,Google LLC,美国 达尔斯,socks5-proxy,socks5,
35.229.87.215:443,35.229.87.215,443,True,69.88,,unknown,通用,,,,通用,results,local-general,
35.247.136.78:443,35.247.136.78,443,True,170.2,,unknown,通用,,,,通用,results,local-general,
36.26.78.226:1080,36.26.78.226,1080,False,,,unknown,中国,,,,中国,ResultsCN,local-CN,Refused
37.187.21.44:443,37.187.21.44,443,False,,,unknown,通用,,,,通用,results,local-general,Timeout
38.22.89.152:1080,38.22.89.152,1080,True,175.46,机房,datacenter,中国,香港,香港,"Cogent Communications, LLC",中国 香港,socks5-proxy,socks5,
38.34.175.99:10000,38.34.175.99,10000,False,,,unknown,美国,,,,美国,resultsUS,local-US,Timeout
38.34.175.109:10000,38.34.175.109,10000,False,,,unknown,美国,,,,美国,resultsUS,local-US,Timeout
38.210.76.102:443,38.210.76.102,443,False,,,unknown,通用,,,,通用,results,local-general,Timeout
39.105.191.39:443,39.105.191.39,443,True,222.7,,unknown,通用,,,,通用,results,local-general,
40.65.182.224:443,40.65.182.224,443,True,172.87,,unknown,通用,,,,通用,results,local-general,
40.142.93.231:443,40.142.93.231,443,False,,,unknown,通用,,,,通用,results,local-general,Timeout
40.143.49.96:443,40.143.49.96,443,False,,,unknown,通用,,,,通用,results,local-general,Timeout
41.205.129.179:443,41.205.129.179,443,True,290.38,,unknown,通用,,,,通用,results,local-general,
42.96.56.83:443,42.96.56.83,443,True,193.52,,unknown,通用,,,,通用,results,local-general,
42.115.173.38:1080,42.115.173.38,1080,True,208.27,机房,datacenter,越南,胡志明市,胡志明市,FPT Telecom Company,越南 胡志明市,socks5-proxy,socks5,
42.192.173.202:20000,42.192.173.202,20000,False,,,unknown,韩国,,,,韩国,ResultsAHT,local-AHT,Refused
43.131.249.38:5555,43.131.249.38,5555,False,,,unknown,韩国,,,,韩国,ResultsAHT,local-AHT,Refused
43.133.237.134:1080,43.133.237.134,1080,False,,,unknown,韩国,,,,韩国,ResultsAHT,local-AHT,Timeout
43.135.147.159:1080,43.135.147.159,1080,False,,,unknown,韩国,,,,韩国,ResultsAHT,local-AHT,Timeout
43.153.64.167:1080,43.153.64.167,1080,False,,,unknown,韩国,,,,韩国,ResultsAHT,local-AHT,Refused
43.154.126.50:5555,43.154.126.50,5555,False,,,unknown,韩国,,,,韩国,ResultsAHT,local-AHT,Timeout
43.155.155.32:1080,43.155.155.32,1080,False,,,unknown,韩国,,,,韩国,ResultsAHT,local-AHT,Timeout
43.155.161.184:1080,43.155.161.184,1080,False,,,unknown,韩国,,,,韩国,ResultsAHT,local-AHT,Timeout
43.155.164.102:1080,43.155.164.102,1080,False,,,unknown,韩国,,,,韩国,ResultsAHT,local-AHT,Refused
43.155.170.40:1080,43.155.170.40,1080,False,,,unknown,韩国,,,,韩国,ResultsAHT,local-AHT,Timeout
43.157.29.112:1080,43.157.29.112,1080,False,,,unknown,韩国,,,,韩国,ResultsAHT,local-AHT,Timeout
43.159.147.149:1080,43.159.147.149,1080,False,,,unknown,韩国,,,,韩国,ResultsAHT,local-AHT,Timeout
45.9.61.18:443,45.9.61.18,443,True,159.73,,unknown,通用,,,,通用,results,local-general,
45.55.32.17:443,45.55.32.17,443,False,,,unknown,通用,,,,通用,results,local-general,Timeout
45.56.228.8:443,45.56.228.8,443,True,154.61,,unknown,通用,,,,通用,results,local-general,
45.79.220.116:443,45.79.220.116,443,True,55.77,,unknown,通用,,,,通用,results,local-general,
45.142.18.246:443,45.142.18.246,443,True,152.81,,unknown,通用,,,,通用,results,local-general,
45.196.234.28:1080,45.196.234.28,1080,True,152.91,机房,datacenter,中国,香港,香港,NET6-AS61112,中国 香港,socks5-proxy,socks5,
45.249.111.203:443,45.249.111.203,443,True,223.09,,unknown,通用,,,,通用,results,local-general,
46.0.205.4:1080,46.0.205.4,1080,True,201.18,家宽,residential,俄罗斯,萨马拉州,萨马拉,"JSC ""ER-Telecom Holding"" Samara Branch",俄罗斯 萨马拉,socks5-proxy,socks5,
46.10.214.92:443,46.10.214.92,443,True,178.19,,unknown,通用,,,,通用,results,local-general,
46.101.22.14:443,46.101.22.14,443,True,145.21,,unknown,通用,,,,通用,results,local-general,
46.105.117.17:443,46.105.117.17,443,True,158.98,,unknown,通用,,,,通用,results,local-general,
46.163.182.45:1080,46.163.182.45,1080,False,,机房,datacenter,俄罗斯,斯维尔德洛夫斯克州,叶卡捷琳堡,Ekaterinburg Customers,俄罗斯 叶卡捷琳堡,socks5-proxy,socks5,Timeout
46.229.114.132:40000,46.229.114.132,40000,True,165.2,,unknown,通用,,,,通用,results,local-general,
46.235.92.149:443,46.235.92.149,443,False,,,unknown,通用,,,,通用,results,local-general,Timeout
47.76.26.106:1080,47.76.26.106,1080,False,,,unknown,韩国,,,,韩国,ResultsAHT,local-AHT,Timeout
47.76.29.215:1080,47.76.29.215,1080,False,,,unknown,韩国,,,,韩国,ResultsAHT,local-AHT,Timeout
47.76.39.128:1080,47.76.39.128,1080,True,158.15,,unknown,韩国,,,,韩国,ResultsAHT,local-AHT,
47.76.40.0:1080,47.76.40.0,1080,False,,,unknown,韩国,,,,韩国,ResultsAHT,local-AHT,Refused
47.76.49.86:1080,47.76.49.86,1080,False,,,unknown,韩国,,,,韩国,ResultsAHT,local-AHT,Refused
47.76.51.64:1080,47.76.51.64,1080,True,155.0,,unknown,韩国,,,,韩国,ResultsAHT,local-AHT,
47.76.54.169:1080,47.76.54.169,1080,True,158.47,,unknown,韩国,,,,韩国,ResultsAHT,local-AHT,
47.76.55.249:1080,47.76.55.249,1080,False,,,unknown,韩国,,,,韩国,ResultsAHT,local-AHT,Timeout
47.76.60.214:1080,47.76.60.214,1080,False,,,unknown,韩国,,,,韩国,ResultsAHT,local-AHT,Refused
47.76.64.21:1080,47.76.64.21,1080,False,,,unknown,韩国,,,,韩国,ResultsAHT,local-AHT,Refused
47.76.76.230:5555,47.76.76.230,5555,False,,,unknown,韩国,,,,韩国,ResultsAHT,local-AHT,Refused
47.76.93.172:1080,47.76.93.172,1080,True,154.58,,unknown,韩国,,,,韩国,ResultsAHT,local-AHT,
47.76.109.152:1080,47.76.109.152,1080,True,158.38,,unknown,韩国,,,,韩国,ResultsAHT,local-AHT,
47.76.111.33:1080,47.76.111.33,1080,True,159.03,,unknown,韩国,,,,韩国,ResultsAHT,local-AHT,
47.76.119.181:1080,47.76.119.181,1080,False,,,unknown,韩国,,,,韩国,ResultsAHT,local-AHT,Refused
47.76.123.6:1080,47.76.123.6,1080,True,159.07,,unknown,韩国,,,,韩国,ResultsAHT,local-AHT,
47.76.123.88:1080,47.76.123.88,1080,False,,,unknown,韩国,,,,韩国,ResultsAHT,local-AHT,Refused
47.76.127.181:1080,47.76.127.181,1080,False,,,unknown,韩国,,,,韩国,ResultsAHT,local-AHT,Refused
47.76.139.194:1080,47.76.139.194,1080,False,,,unknown,韩国,,,,韩国,ResultsAHT,local-AHT,Timeout
47.76.146.249:1080,47.76.146.249,1080,False,,,unknown,韩国,,,,韩国,ResultsAHT,local-AHT,Refused
47.76.147.172:1080,47.76.147.172,1080,True,158.65,,unknown,韩国,,,,韩国,ResultsAHT,local-AHT,
47.76.158.4:1080,47.76.158.4,1080,False,,,unknown,韩国,,,,韩国,ResultsAHT,local-AHT,Refused
47.76.215.205:1080,47.76.215.205,1080,False,,,unknown,韩国,,,,韩国,ResultsAHT,local-AHT,Timeout
47.76.231.99:1080,47.76.231.99,1080,True,158.86,,unknown,韩国,,,,韩国,ResultsAHT,local-AHT,
47.76.242.59:1080,47.76.242.59,1080,False,,,unknown,韩国,,,,韩国,ResultsAHT,local-AHT,Timeout
47.76.243.77:1080,47.76.243.77,1080,False,,,unknown,韩国,,,,韩国,ResultsAHT,local-AHT,Timeout
47.76.245.234:1080,47.76.245.234,1080,False,,,unknown,韩国,,,,韩国,ResultsAHT,local-AHT,Refused
47.76.246.91:1080,47.76.246.91,1080,False,,,unknown,韩国,,,,韩国,ResultsAHT,local-AHT,Timeout
47.76.252.94:1080,47.76.252.94,1080,False,,,unknown,韩国,,,,韩国,ResultsAHT,local-AHT,Refused
47.76.254.12:1080,47.76.254.12,1080,False,,,unknown,韩国,,,,韩国,ResultsAHT,local-AHT,Timeout
47.76.254.133:1080,47.76.254.133,1080,False,,,unknown,韩国,,,,韩国,ResultsAHT,local-AHT,Timeout
47.76.255.29:1080,47.76.255.29,1080,False,,,unknown,韩国,,,,韩国,ResultsAHT,local-AHT,Timeout
47.76.255.121:1080,47.76.255.121,1080,False,,,unknown,韩国,,,,韩国,ResultsAHT,local-AHT,Refused
47.80.0.63:1080,47.80.0.63,1080,False,,,unknown,韩国,,,,韩国,ResultsAHT,local-AHT,Timeout
47.80.2.32:1080,47.80.2.32,1080,False,,,unknown,韩国,,,,韩国,ResultsAHT,local-AHT,Refused
47.80.2.157:1080,47.80.2.157,1080,False,,,unknown,韩国,,,,韩国,ResultsAHT,local-AHT,Timeout
47.80.4.34:1080,47.80.4.34,1080,False,,,unknown,韩国,,,,韩国,ResultsAHT,local-AHT,Timeout
47.80.4.89:1080,47.80.4.89,1080,False,,,unknown,韩国,,,,韩国,ResultsAHT,local-AHT,Timeout
47.80.5.23:1080,47.80.5.23,1080,False,,,unknown,韩国,,,,韩国,ResultsAHT,local-AHT,Refused
47.80.5.157:1080,47.80.5.157,1080,False,,,unknown,韩国,,,,韩国,ResultsAHT,local-AHT,Refused
47.80.5.178:1080,47.80.5.178,1080,False,,,unknown,韩国,,,,韩国,ResultsAHT,local-AHT,Refused
47.80.6.56:1080,47.80.6.56,1080,False,,,unknown,韩国,,,,韩国,ResultsAHT,local-AHT,Timeout
47.80.6.121:1080,47.80.6.121,1080,False,,,unknown,韩国,,,,韩国,ResultsAHT,local-AHT,Timeout
47.80.7.10:1080,47.80.7.10,1080,False,,,unknown,韩国,,,,韩国,ResultsAHT,local-AHT,Timeout
47.80.7.53:1080,47.80.7.53,1080,False,,,unknown,韩国,,,,韩国,ResultsAHT,local-AHT,Timeout
47.80.7.73:1080,47.80.7.73,1080,False,,,unknown,韩国,,,,韩国,ResultsAHT,local-AHT,Refused
47.80.7.76:1080,47.80.7.76,1080,False,,,unknown,韩国,,,,韩国,ResultsAHT,local-AHT,Timeout
47.80.7.88:1080,47.80.7.88,1080,False,,,unknown,韩国,,,,韩国,ResultsAHT,local-AHT,Timeout
47.80.7.125:1080,47.80.7.125,1080,False,,,unknown,韩国,,,,韩国,ResultsAHT,local-AHT,Refused
47.80.7.126:1080,47.80.7.126,1080,False,,,unknown,韩国,,,,韩国,ResultsAHT,local-AHT,Refused
47.80.7.209:1080,47.80.7.209,1080,False,,,unknown,韩国,,,,韩国,ResultsAHT,local-AHT,Refused
47.80.10.14:1080,47.80.10.14,1080,False,,,unknown,韩国,,,,韩国,ResultsAHT,local-AHT,Timeout
47.80.10.17:1080,47.80.10.17,1080,False,,,unknown,韩国,,,,韩国,ResultsAHT,local-AHT,Timeout
47.80.10.34:1080,47.80.10.34,1080,False,,,unknown,韩国,,,,韩国,ResultsAHT,local-AHT,Refused
47.80.10.51:1080,47.80.10.51,1080,False,,,unknown,韩国,,,,韩国,ResultsAHT,local-AHT,Refused
47.80.10.56:1080,47.80.10.56,1080,False,,,unknown,韩国,,,,韩国,ResultsAHT,local-AHT,Refused
47.80.10.66:1080,47.80.10.66,1080,False,,,unknown,韩国,,,,韩国,ResultsAHT,local-AHT,Refused
47.80.10.68:1080,47.80.10.68,1080,False,,,unknown,韩国,,,,韩国,ResultsAHT,local-AHT,Timeout
47.80.10.71:1080,47.80.10.71,1080,False,,,unknown,韩国,,,,韩国,ResultsAHT,local-AHT,Timeout
47.80.10.78:1080,47.80.10.78,1080,False,,,unknown,韩国,,,,韩国,ResultsAHT,local-AHT,Refused
47.80.10.125:1080,47.80.10.125,1080,False,,,unknown,韩国,,,,韩国,ResultsAHT,local-AHT,Refused
47.80.10.135:1080,47.80.10.135,1080,False,,,unknown,韩国,,,,韩国,ResultsAHT,local-AHT,Timeout
47.80.10.143:1080,47.80.10.143,1080,False,,,unknown,韩国,,,,韩国,ResultsAHT,local-AHT,Timeout
47.80.10.171:1080,47.80.10.171,1080,False,,,unknown,韩国,,,,韩国,ResultsAHT,local-AHT,Refused
47.80.10.220:1080,47.80.10.220,1080,False,,,unknown,韩国,,,,韩国,ResultsAHT,local-AHT,Timeout
47.80.10.221:1080,47.80.10.221,1080,False,,,unknown,韩国,,,,韩国,ResultsAHT,local-AHT,Timeout
47.80.10.230:1080,47.80.10.230,1080,False,,,unknown,韩国,,,,韩国,ResultsAHT,local-AHT,Timeout
47.80.10.240:1080,47.80.10.240,1080,False,,,unknown,韩国,,,,韩国,ResultsAHT,local-AHT,Timeout
47.80.10.242:1080,47.80.10.242,1080,False,,,unknown,韩国,,,,韩国,ResultsAHT,local-AHT,Timeout
47.80.11.1:1080,47.80.11.1,1080,False,,,unknown,韩国,,,,韩国,ResultsAHT,local-AHT,Refused
47.80.11.12:1080,47.80.11.12,1080,False,,,unknown,韩国,,,,韩国,ResultsAHT,local-AHT,Refused
47.80.11.14:1080,47.80.11.14,1080,False,,,unknown,韩国,,,,韩国,ResultsAHT,local-AHT,Refused
47.80.11.100:1080,47.80.11.100,1080,False,,,unknown,韩国,,,,韩国,ResultsAHT,local-AHT,Timeout
47.80.11.105:1080,47.80.11.105,1080,False,,,unknown,韩国,,,,韩国,ResultsAHT,local-AHT,Refused
47.80.11.108:1080,47.80.11.108,1080,False,,,unknown,韩国,,,,韩国,ResultsAHT,local-AHT,Refused
47.80.11.115:1080,47.80.11.115,1080,False,,,unknown,韩国,,,,韩国,ResultsAHT,local-AHT,Refused
47.80.11.165:1080,47.80.11.165,1080,False,,,unknown,韩国,,,,韩国,ResultsAHT,local-AHT,Refused
47.80.11.179:1080,47.80.11.179,1080,False,,,unknown,韩国,,,,韩国,ResultsAHT,local-AHT,Refused
47.83.11.70:1080,47.83.11.70,1080,True,157.22,,unknown,韩国,,,,韩国,ResultsAHT,local-AHT,
47.83.25.131:1080,47.83.25.131,1080,True,157.63,,unknown,韩国,,,,韩国,ResultsAHT,local-AHT,
47.83.193.175:1080,47.83.193.175,1080,True,158.25,,unknown,韩国,,,,韩国,ResultsAHT,local-AHT,
47.83.196.134:1080,47.83.196.134,1080,True,157.73,,unknown,韩国,,,,韩国,ResultsAHT,local-AHT,
47.83.197.81:1080,47.83.197.81,1080,False,,,unknown,韩国,,,,韩国,ResultsAHT,local-AHT,Timeout
47.83.198.248:1080,47.83.198.248,1080,True,157.54,,unknown,韩国,,,,韩国,ResultsAHT,local-AHT,
47.83.203.166:1080,47.83.203.166,1080,True,155.21,,unknown,韩国,,,,韩国,ResultsAHT,local-AHT,
47.83.212.147:1080,47.83.212.147,1080,True,158.06,,unknown,韩国,,,,韩国,ResultsAHT,local-AHT,
47.83.215.59:1080,47.83.215.59,1080,True,158.52,,unknown,韩国,,,,韩国,ResultsAHT,local-AHT,
47.83.216.210:1080,47.83.216.210,1080,False,,,unknown,韩国,,,,韩国,ResultsAHT,local-AHT,Timeout
47.83.222.227:1080,47.83.222.227,1080,True,157.26,,unknown,韩国,,,,韩国,ResultsAHT,local-AHT,
47.83.225.179:1080,47.83.225.179,1080,True,158.1,,unknown,韩国,,,,韩国,ResultsAHT,local-AHT,
47.83.238.234:1080,47.83.238.234,1080,True,157.81,,unknown,韩国,,,,韩国,ResultsAHT,local-AHT,
47.83.239.90:1080,47.83.239.90,1080,True,158.56,,unknown,韩国,,,,韩国,ResultsAHT,local-AHT,
47.83.240.38:1080,47.83.240.38,1080,True,153.72,,unknown,韩国,,,,韩国,ResultsAHT,local-AHT,
47.83.243.95:1080,47.83.243.95,1080,True,157.95,,unknown,韩国,,,,韩国,ResultsAHT,local-AHT,
47.83.243.220:1080,47.83.243.220,1080,True,155.27,,unknown,韩国,,,,韩国,ResultsAHT,local-AHT,
47.83.249.227:1080,47.83.249.227,1080,False,,,unknown,韩国,,,,韩国,ResultsAHT,local-AHT,Timeout
47.83.252.232:1080,47.83.252.232,1080,True,158.51,,unknown,韩国,,,,韩国,ResultsAHT,local-AHT,
47.83.253.203:1080,47.83.253.203,1080,True,158.18,,unknown,韩国,,,,韩国,ResultsAHT,local-AHT,
47.83.254.194:1080,47.83.254.194,1080,True,158.6,,unknown,韩国,,,,韩国,ResultsAHT,local-AHT,
47.83.254.242:1080,47.83.254.242,1080,True,158.09,,unknown,韩国,,,,韩国,ResultsAHT,local-AHT,
47.86.5.21:1080,47.86.5.21,1080,False,,,unknown,韩国,,,,韩国,ResultsAHT,local-AHT,Refused
47.86.7.217:1080,47.86.7.217,1080,True,158.38,,unknown,韩国,,,,韩国,ResultsAHT,local-AHT,
47.86.13.214:1080,47.86.13.214,1080,True,158.71,,unknown,韩国,,,,韩国,ResultsAHT,local-AHT,
47.86.16.117:1080,47.86.16.117,1080,True,158.1,,unknown,韩国,,,,韩国,ResultsAHT,local-AHT,
47.86.21.114:1080,47.86.21.114,1080,True,157.79,,unknown,韩国,,,,韩国,ResultsAHT,local-AHT,
47.86.28.182:1080,47.86.28.182,1080,True,157.98,,unknown,韩国,,,,韩国,ResultsAHT,local-AHT,
47.86.35.127:1080,47.86.35.127,1080,True,154.37,,unknown,韩国,,,,韩国,ResultsAHT,local-AHT,
47.86.36.37:1080,47.86.36.37,1080,True,157.87,,unknown,韩国,,,,韩国,ResultsAHT,local-AHT,
47.86.38.54:1080,47.86.38.54,1080,True,158.37,,unknown,韩国,,,,韩国,ResultsAHT,local-AHT,
47.86.39.208:1080,47.86.39.208,1080,True,159.01,,unknown,韩国,,,,韩国,ResultsAHT,local-AHT,
47.86.45.67:1080,47.86.45.67,1080,True,158.0,,unknown,韩国,,,,韩国,ResultsAHT,local-AHT,
47.86.225.36:1080,47.86.225.36,1080,True,158.31,,unknown,韩国,,,,韩国,ResultsAHT,local-AHT,
47.86.225.133:1080,47.86.225.133,1080,True,158.26,,unknown,韩国,,,,韩国,ResultsAHT,local-AHT,
47.86.225.145:1080,47.86.225.145,1080,True,158.35,,unknown,韩国,,,,韩国,ResultsAHT,local-AHT,
47.86.225.200:1080,47.86.225.200,1080,True,158.0,,unknown,韩国,,,,韩国,ResultsAHT,local-AHT,
47.86.227.216:1080,47.86.227.216,1080,True,158.81,,unknown,韩国,,,,韩国,ResultsAHT,local-AHT,
47.86.227.249:1080,47.86.227.249,1080,True,158.29,,unknown,韩国,,,,韩国,ResultsAHT,local-AHT,
47.86.228.129:1080,47.86.228.129,1080,True,157.94,,unknown,韩国,,,,韩国,ResultsAHT,local-AHT,
47.86.228.152:1080,47.86.228.152,1080,True,158.88,,unknown,韩国,,,,韩国,ResultsAHT,local-AHT,
47.86.228.221:1080,47.86.228.221,1080,True,154.94,,unknown,韩国,,,,韩国,ResultsAHT,local-AHT,
47.86.228.237:1080,47.86.228.237,1080,True,159.31,,unknown,韩国,,,,韩国,ResultsAHT,local-AHT,
47.86.229.98:1080,47.86.229.98,1080,True,154.35,,unknown,韩国,,,,韩国,ResultsAHT,local-AHT,
47.86.229.160:1080,47.86.229.160,1080,True,158.04,,unknown,韩国,,,,韩国,ResultsAHT,local-AHT,
47.86.229.179:1080,47.86.229.179,1080,True,157.42,,unknown,韩国,,,,韩国,ResultsAHT,local-AHT,
47.86.231.39:1080,47.86.231.39,1080,True,157.9,,unknown,韩国,,,,韩国,ResultsAHT,local-AHT,
47.86.231.73:1080,47.86.231.73,1080,True,159.87,,unknown,韩国,,,,韩国,ResultsAHT,local-AHT,
47.86.231.113:1080,47.86.231.113,1080,True,158.88,,unknown,韩国,,,,韩国,ResultsAHT,local-AHT,
47.86.231.167:1080,47.86.231.167,1080,True,158.41,,unknown,韩国,,,,韩国,ResultsAHT,local-AHT,
47.86.231.218:1080,47.86.231.218,1080,True,157.89,,unknown,韩国,,,,韩国,ResultsAHT,local-AHT,
47.86.231.229:1080,47.86.231.229,1080,True,158.64,,unknown,韩国,,,,韩国,ResultsAHT,local-AHT,
47.86.232.177:1080,47.86.232.177,1080,True,159.75,,unknown,韩国,,,,韩国,ResultsAHT,local-AHT,
47.86.234.45:1080,47.86.234.45,1080,True,154.38,,unknown,韩国,,,,韩国,ResultsAHT,local-AHT,
47.86.234.70:1080,47.86.234.70,1080,True,158.52,,unknown,韩国,,,,韩国,ResultsAHT,local-AHT,
47.86.234.88:1080,47.86.234.88,1080,True,154.24,,unknown,韩国,,,,韩国,ResultsAHT,local-AHT,
47.86.235.43:1080,47.86.235.43,1080,True,154.92,,unknown,韩国,,,,韩国,ResultsAHT,local-AHT,
47.86.238.121:1080,47.86.238.121,1080,True,158.82,,unknown,韩国,,,,韩国,ResultsAHT,local-AHT,
47.93.82.173:8888,47.93.82.173,8888,True,195.71,,unknown,中国,,,,中国,ResultsCN,local-CN,
47.101.199.164:1080,47.101.199.164,1080,False,,,unknown,中国,,,,中国,ResultsCN,local-CN,Refused
47.103.136.132:443,47.103.136.132,443,True,191.05,,unknown,通用,,,,通用,results,local-general,
47.107.240.185:443,47.107.240.185,443,False,,,unknown,通用,,,,通用,results,local-general,Timeout
47.237.2.70:8888,47.237.2.70,8888,False,,,unknown,韩国,,,,韩国,ResultsAHT,local-AHT,Timeout
47.237.11.125:8888,47.237.11.125,8888,True,172.99,,unknown,韩国,,,,韩国,ResultsAHT,local-AHT,
47.238.3.215:1080,47.238.3.215,1080,False,,,unknown,韩国,,,,韩国,ResultsAHT,local-AHT,Refused
47.238.5.156:1080,47.238.5.156,1080,False,,,unknown,韩国,,,,韩国,ResultsAHT,local-AHT,Timeout
47.238.7.23:1080,47.238.7.23,1080,False,,,unknown,韩国,,,,韩国,ResultsAHT,local-AHT,Timeout
47.238.31.138:8888,47.238.31.138,8888,False,,,unknown,韩国,,,,韩国,ResultsAHT,local-AHT,Timeout
47.238.57.36:1080,47.238.57.36,1080,True,154.53,,unknown,韩国,,,,韩国,ResultsAHT,local-AHT,
47.238.72.235:5555,47.238.72.235,5555,False,,,unknown,韩国,,,,韩国,ResultsAHT,local-AHT,Refused
47.238.79.92:5555,47.238.79.92,5555,False,,,unknown,韩国,,,,韩国,ResultsAHT,local-AHT,Refused
47.238.80.90:5555,47.238.80.90,5555,False,,,unknown,韩国,,,,韩国,ResultsAHT,local-AHT,Refused
47.238.114.159:5555,47.238.114.159,5555,False,,,unknown,韩国,,,,韩国,ResultsAHT,local-AHT,Refused
47.238.119.131:5555,47.238.119.131,5555,False,,,unknown,韩国,,,,韩国,ResultsAHT,local-AHT,Refused
47.238.123.168:5555,47.238.123.168,5555,False,,,unknown,韩国,,,,韩国,ResultsAHT,local-AHT,Refused
47.238.128.199:1080,47.238.128.199,1080,True,155.18,,unknown,韩国,,,,韩国,ResultsAHT,local-AHT,
47.238.132.52:1080,47.238.132.52,1080,True,158.86,,unknown,韩国,,,,韩国,ResultsAHT,local-AHT,
47.238.154.8:5555,47.238.154.8,5555,False,,,unknown,韩国,,,,韩国,ResultsAHT,local-AHT,Refused
47.238.175.122:1080,47.238.175.122,1080,False,,,unknown,韩国,,,,韩国,ResultsAHT,local-AHT,Timeout
47.238.204.50:5555,47.238.204.50,5555,False,,,unknown,韩国,,,,韩国,ResultsAHT,local-AHT,Timeout
47.238.211.254:5555,47.238.211.254,5555,False,,,unknown,韩国,,,,韩国,ResultsAHT,local-AHT,Timeout
47.238.226.57:1080,47.238.226.57,1080,False,,,unknown,韩国,,,,韩国,ResultsAHT,local-AHT,Timeout
47.238.231.210:1080,47.238.231.210,1080,True,158.0,,unknown,韩国,,,,韩国,ResultsAHT,local-AHT,
47.238.240.113:1080,47.238.240.113,1080,False,,,unknown,韩国,,,,韩国,ResultsAHT,local-AHT,Timeout
47.238.243.150:1080,47.238.243.150,1080,True,157.69,,unknown,韩国,,,,韩国,ResultsAHT,local-AHT,
47.238.254.24:20000,47.238.254.24,20000,False,,,unknown,韩国,,,,韩国,ResultsAHT,local-AHT,Timeout
47.239.7.37:1080,47.239.7.37,1080,True,158.09,,unknown,韩国,,,,韩国,ResultsAHT,local-AHT,
47.239.13.156:1080,47.239.13.156,1080,True,162.2,,unknown,韩国,,,,韩国,ResultsAHT,local-AHT,
47.239.16.176:1080,47.239.16.176,1080,False,,,unknown,韩国,,,,韩国,ResultsAHT,local-AHT,Timeout
47.239.16.221:1080,47.239.16.221,1080,False,,,unknown,韩国,,,,韩国,ResultsAHT,local-AHT,Timeout
47.239.17.206:1080,47.239.17.206,1080,False,,,unknown,韩国,,,,韩国,ResultsAHT,local-AHT,Timeout
47.239.18.207:1080,47.239.18.207,1080,False,,,unknown,韩国,,,,韩国,ResultsAHT,local-AHT,Timeout
47.239.18.254:1080,47.239.18.254,1080,False,,,unknown,韩国,,,,韩国,ResultsAHT,local-AHT,Timeout
47.239.19.117:1080,47.239.19.117,1080,False,,,unknown,韩国,,,,韩国,ResultsAHT,local-AHT,Timeout
47.239.29.245:1080,47.239.29.245,1080,False,,,unknown,韩国,,,,韩国,ResultsAHT,local-AHT,Refused
47.239.130.177:1080,47.239.130.177,1080,True,159.83,,unknown,韩国,,,,韩国,ResultsAHT,local-AHT,
47.239.155.247:1080,47.239.155.247,1080,False,,,unknown,韩国,,,,韩国,ResultsAHT,local-AHT,Timeout
47.239.161.0:1080,47.239.161.0,1080,False,,,unknown,韩国,,,,韩国,ResultsAHT,local-AHT,Timeout
47.239.237.141:1080,47.239.237.141,1080,True,154.7,,unknown,韩国,,,,韩国,ResultsAHT,local-AHT,
47.242.0.10:1080,47.242.0.10,1080,True,159.72,,unknown,韩国,,,,韩国,ResultsAHT,local-AHT,
47.242.0.78:1080,47.242.0.78,1080,True,155.46,,unknown,韩国,,,,韩国,ResultsAHT,local-AHT,
47.242.0.167:1080,47.242.0.167,1080,False,,,unknown,韩国,,,,韩国,ResultsAHT,local-AHT,Refused
47.242.1.155:1080,47.242.1.155,1080,True,157.57,,unknown,韩国,,,,韩国,ResultsAHT,local-AHT,
47.242.2.159:1080,47.242.2.159,1080,False,,,unknown,韩国,,,,韩国,ResultsAHT,local-AHT,Refused
47.242.3.62:1080,47.242.3.62,1080,True,154.79,,unknown,韩国,,,,韩国,ResultsAHT,local-AHT,
47.242.3.64:1080,47.242.3.64,1080,False,,,unknown,韩国,,,,韩国,ResultsAHT,local-AHT,Refused
47.242.4.90:1080,47.242.4.90,1080,False,,,unknown,韩国,,,,韩国,ResultsAHT,local-AHT,Refused
47.242.5.94:5555,47.242.5.94,5555,True,158.51,,unknown,韩国,,,,韩国,ResultsAHT,local-AHT,
47.242.6.78:1080,47.242.6.78,1080,True,157.97,,unknown,韩国,,,,韩国,ResultsAHT,local-AHT,
47.242.7.175:1080,47.242.7.175,1080,True,159.05,,unknown,韩国,,,,韩国,ResultsAHT,local-AHT,
47.242.18.43:1080,47.242.18.43,1080,True,158.28,,unknown,韩国,,,,韩国,ResultsAHT,local-AHT,
47.242.19.224:1080,47.242.19.224,1080,True,158.7,,unknown,韩国,,,,韩国,ResultsAHT,local-AHT,
47.242.20.207:5555,47.242.20.207,5555,True,154.71,,unknown,韩国,,,,韩国,ResultsAHT,local-AHT,
47.242.23.139:5555,47.242.23.139,5555,True,158.78,,unknown,韩国,,,,韩国,ResultsAHT,local-AHT,
47.242.26.52:1080,47.242.26.52,1080,True,158.54,,unknown,韩国,,,,韩国,ResultsAHT,local-AHT,
47.242.26.252:5555,47.242.26.252,5555,True,158.22,,unknown,韩国,,,,韩国,ResultsAHT,local-AHT,
47.242.29.206:5555,47.242.29.206,5555,True,159.74,,unknown,韩国,,,,韩国,ResultsAHT,local-AHT,
47.242.30.34:5555,47.242.30.34,5555,True,154.41,,unknown,韩国,,,,韩国,ResultsAHT,local-AHT,
47.242.40.227:5555,47.242.40.227,5555,False,,,unknown,韩国,,,,韩国,ResultsAHT,local-AHT,Refused
47.242.48.206:5555,47.242.48.206,5555,False,,,unknown,韩国,,,,韩国,ResultsAHT,local-AHT,Refused
47.242.68.139:1080,47.242.68.139,1080,True,159.08,,unknown,韩国,,,,韩国,ResultsAHT,local-AHT,
47.242.69.141:1080,47.242.69.141,1080,False,,,unknown,韩国,,,,韩国,ResultsAHT,local-AHT,Refused
47.242.69.254:1080,47.242.69.254,1080,True,158.54,,unknown,韩国,,,,韩国,ResultsAHT,local-AHT,
47.242.72.41:5555,47.242.72.41,5555,True,158.66,,unknown,韩国,,,,韩国,ResultsAHT,local-AHT,
47.242.74.20:1080,47.242.74.20,1080,True,159.05,,unknown,韩国,,,,韩国,ResultsAHT,local-AHT,
47.242.75.49:1080,47.242.75.49,1080,True,158.23,,unknown,韩国,,,,韩国,ResultsAHT,local-AHT,
47.242.76.122:1080,47.242.76.122,1080,True,158.36,,unknown,韩国,,,,韩国,ResultsAHT,local-AHT,
47.242.77.145:5555,47.242.77.145,5555,True,158.54,,unknown,韩国,,,,韩国,ResultsAHT,local-AHT,
47.242.88.196:1080,47.242.88.196,1080,False,,,unknown,韩国,,,,韩国,ResultsAHT,local-AHT,Refused
47.242.89.57:1080,47.242.89.57,1080,True,158.85,,unknown,韩国,,,,韩国,ResultsAHT,local-AHT,
47.242.89.185:1080,47.242.89.185,1080,False,,,unknown,韩国,,,,韩国,ResultsAHT,local-AHT,Refused
47.242.89.225:5555,47.242.89.225,5555,True,169.51,,unknown,韩国,,,,韩国,ResultsAHT,local-AHT,
47.242.89.233:5555,47.242.89.233,5555,True,157.99,,unknown,韩国,,,,韩国,ResultsAHT,local-AHT,
47.242.90.224:1080,47.242.90.224,1080,True,158.22,,unknown,韩国,,,,韩国,ResultsAHT,local-AHT,
47.242.93.181:5555,47.242.93.181,5555,True,158.18,,unknown,韩国,,,,韩国,ResultsAHT,local-AHT,
47.242.94.102:5555,47.242.94.102,5555,True,165.87,,unknown,韩国,,,,韩国,ResultsAHT,local-AHT,
47.242.95.0:5555,47.242.95.0,5555,True,158.15,,unknown,韩国,,,,韩国,ResultsAHT,local-AHT,
47.242.95.129:1080,47.242.95.129,1080,False,,,unknown,韩国,,,,韩国,ResultsAHT,local-AHT,Refused
47.242.110.60:1080,47.242.110.60,1080,False,,,unknown,韩国,,,,韩国,ResultsAHT,local-AHT,Refused
47.242.133.229:5555,47.242.133.229,5555,True,155.0,,unknown,韩国,,,,韩国,ResultsAHT,local-AHT,
47.242.134.14:5555,47.242.134.14,5555,True,157.79,,unknown,韩国,,,,韩国,ResultsAHT,local-AHT,
47.242.134.144:5555,47.242.134.144,5555,True,158.15,,unknown,韩国,,,,韩国,ResultsAHT,local-AHT,
47.242.136.241:5555,47.242.136.241,5555,True,157.45,,unknown,韩国,,,,韩国,ResultsAHT,local-AHT,
47.242.137.254:5555,47.242.137.254,5555,True,158.4,,unknown,韩国,,,,韩国,ResultsAHT,local-AHT,
47.242.138.3:5555,47.242.138.3,5555,True,157.85,,unknown,韩国,,,,韩国,ResultsAHT,local-AHT,
47.242.138.67:5555,47.242.138.67,5555,True,154.54,,unknown,韩国,,,,韩国,ResultsAHT,local-AHT,
47.242.142.221:8888,47.242.142.221,8888,False,,,unknown,韩国,,,,韩国,ResultsAHT,local-AHT,Timeout
47.242.145.249:1080,47.242.145.249,1080,False,,,unknown,韩国,,,,韩国,ResultsAHT,local-AHT,Refused
47.242.149.39:1080,47.242.149.39,1080,False,,,unknown,韩国,,,,韩国,ResultsAHT,local-AHT,Refused
47.242.152.105:1080,47.242.152.105,1080,False,,,unknown,韩国,,,,韩国,ResultsAHT,local-AHT,Refused
47.242.153.148:1080,47.242.153.148,1080,True,158.66,,unknown,韩国,,,,韩国,ResultsAHT,local-AHT,
47.242.162.52:1080,47.242.162.52,1080,False,,,unknown,韩国,,,,韩国,ResultsAHT,local-AHT,Refused
47.242.163.184:5555,47.242.163.184,5555,True,159.38,,unknown,韩国,,,,韩国,ResultsAHT,local-AHT,
47.242.164.12:5555,47.242.164.12,5555,True,158.61,,unknown,韩国,,,,韩国,ResultsAHT,local-AHT,
47.242.165.225:5555,47.242.165.225,5555,True,154.82,,unknown,韩国,,,,韩国,ResultsAHT,local-AHT,
47.242.168.35:1080,47.242.168.35,1080,False,,,unknown,韩国,,,,韩国,ResultsAHT,local-AHT,Refused
47.242.172.90:5555,47.242.172.90,5555,True,157.76,,unknown,韩国,,,,韩国,ResultsAHT,local-AHT,
47.242.184.152:5555,47.242.184.152,5555,False,,,unknown,韩国,,,,韩国,ResultsAHT,local-AHT,Refused
47.242.212.58:1080,47.242.212.58,1080,True,158.48,,unknown,韩国,,,,韩国,ResultsAHT,local-AHT,
47.242.212.59:1080,47.242.212.59,1080,True,158.42,,unknown,韩国,,,,韩国,ResultsAHT,local-AHT,
47.242.212.155:1080,47.242.212.155,1080,True,153.83,,unknown,韩国,,,,韩国,ResultsAHT,local-AHT,
47.242.214.4:1080,47.242.214.4,1080,True,158.31,,unknown,韩国,,,,韩国,ResultsAHT,local-AHT,
47.242.216.128:1080,47.242.216.128,1080,False,,,unknown,韩国,,,,韩国,ResultsAHT,local-AHT,Refused
47.242.219.207:1080,47.242.219.207,1080,False,,,unknown,韩国,,,,韩国,ResultsAHT,local-AHT,Refused
47.242.234.118:5555,47.242.234.118,5555,False,,,unknown,韩国,,,,韩国,ResultsAHT,local-AHT,Refused
47.242.252.73:5555,47.242.252.73,5555,False,,,unknown,韩国,,,,韩国,ResultsAHT,local-AHT,Refused
47.243.4.6:1080,47.243.4.6,1080,True,157.81,,unknown,韩国,,,,韩国,ResultsAHT,local-AHT,
47.243.5.233:1080,47.243.5.233,1080,True,154.28,,unknown,韩国,,,,韩国,ResultsAHT,local-AHT,
47.243.6.120:1080,47.243.6.120,1080,True,158.53,,unknown,韩国,,,,韩国,ResultsAHT,local-AHT,
47.243.7.120:1080,47.243.7.120,1080,False,,,unknown,韩国,,,,韩国,ResultsAHT,local-AHT,Refused
47.243.7.224:1080,47.243.7.224,1080,True,167.31,,unknown,韩国,,,,韩国,ResultsAHT,local-AHT,
47.243.11.128:1080,47.243.11.128,1080,True,158.73,,unknown,韩国,,,,韩国,ResultsAHT,local-AHT,
47.243.14.117:1080,47.243.14.117,1080,True,158.97,,unknown,韩国,,,,韩国,ResultsAHT,local-AHT,
47.243.19.190:5555,47.243.19.190,5555,False,,,unknown,韩国,,,,韩国,ResultsAHT,local-AHT,Refused
47.243.72.227:5555,47.243.72.227,5555,False,,,unknown,韩国,,,,韩国,ResultsAHT,local-AHT,Refused
47.243.123.29:1080,47.243.123.29,1080,False,,,unknown,韩国,,,,韩国,ResultsAHT,local-AHT,Refused
47.243.126.222:1080,47.243.126.222,1080,True,158.18,,unknown,韩国,,,,韩国,ResultsAHT,local-AHT,
47.243.136.25:1080,47.243.136.25,1080,True,158.54,,unknown,韩国,,,,韩国,ResultsAHT,local-AHT,
47.243.141.203:1080,47.243.141.203,1080,True,158.78,,unknown,韩国,,,,韩国,ResultsAHT,local-AHT,
47.243.163.226:5555,47.243.163.226,5555,False,,,unknown,韩国,,,,韩国,ResultsAHT,local-AHT,Refused
47.243.178.162:1080,47.243.178.162,1080,False,,,unknown,韩国,,,,韩国,ResultsAHT,local-AHT,Refused
47.243.179.186:1080,47.243.179.186,1080,True,155.26,,unknown,韩国,,,,韩国,ResultsAHT,local-AHT,
47.243.179.219:1080,47.243.179.219,1080,True,168.03,,unknown,韩国,,,,韩国,ResultsAHT,local-AHT,
47.243.179.248:1080,47.243.179.248,1080,False,,,unknown,韩国,,,,韩国,ResultsAHT,local-AHT,Refused
47.243.186.147:1080,47.243.186.147,1080,True,165.09,,unknown,韩国,,,,韩国,ResultsAHT,local-AHT,
47.243.187.133:5555,47.243.187.133,5555,False,,,unknown,韩国,,,,韩国,ResultsAHT,local-AHT,Refused
47.243.187.144:1080,47.243.187.144,1080,True,154.07,,unknown,韩国,,,,韩国,ResultsAHT,local-AHT,
47.243.188.99:1080,47.243.188.99,1080,True,161.56,,unknown,韩国,,,,韩国,ResultsAHT,local-AHT,
47.243.189.61:1080,47.243.189.61,1080,True,160.01,,unknown,韩国,,,,韩国,ResultsAHT,local-AHT,
47.243.189.253:1080,47.243.189.253,1080,False,,,unknown,韩国,,,,韩国,ResultsAHT,local-AHT,Refused
47.243.190.179:1080,47.243.190.179,1080,True,157.6,,unknown,韩国,,,,韩国,ResultsAHT,local-AHT,
47.243.226.207:1080,47.243.226.207,1080,False,,,unknown,韩国,,,,韩国,ResultsAHT,local-AHT,Refused
47.243.227.135:1080,47.243.227.135,1080,True,157.43,,unknown,韩国,,,,韩国,ResultsAHT,local-AHT,
47.243.228.145:1080,47.243.228.145,1080,False,,,unknown,韩国,,,,韩国,ResultsAHT,local-AHT,Refused
47.243.229.80:1080,47.243.229.80,1080,True,158.35,,unknown,韩国,,,,韩国,ResultsAHT,local-AHT,
47.243.233.169:1080,47.243.233.169,1080,True,157.91,,unknown,韩国,,,,韩国,ResultsAHT,local-AHT,
47.243.246.240:5555,47.243.246.240,5555,False,,,unknown,韩国,,,,韩国,ResultsAHT,local-AHT,Refused
47.251.104.77:1080,47.251.104.77,1080,False,,,unknown,韩国,,,,韩国,ResultsAHT,local-AHT,Timeout
47.251.113.129:1080,47.251.113.129,1080,False,,,unknown,韩国,,,,韩国,ResultsAHT,local-AHT,Timeout
49.50.72.246:443,49.50.72.246,443,False,,,unknown,通用,,,,通用,results,local-general,Timeout
49.64.242.111:1080,49.64.242.111,1080,False,,,unknown,中国,,,,中国,ResultsCN,local-CN,Timeout
49.75.59.224:1080,49.75.59.224,1080,False,,,unknown,中国,,,,中国,ResultsCN,local-CN,Timeout
51.38.94.252:443,51.38.94.252,443,True,150.88,,unknown,通用,,,,通用,results,local-general,
51.38.179.176:443,51.38.179.176,443,True,146.56,,unknown,通用,,,,通用,results,local-general,
51.68.192.76:14443,51.68.192.76,14443,True,151.43,,unknown,通用,,,,通用,results,local-general,
51.83.77.59:443,51.83.77.59,443,True,145.33,,unknown,通用,,,,通用,results,local-general,
51.91.251.117:443,51.91.251.117,443,True,145.96,,unknown,通用,,,,通用,results,local-general,
51.159.70.244:443,51.159.70.244,443,True,151.63,,unknown,通用,,,,通用,results,local-general,
51.195.107.167:8000,51.195.107.167,8000,True,154.62,,unknown,通用,,,,通用,results,local-general,
52.1.130.127:443,52.1.130.127,443,True,72.86,,unknown,通用,,,,通用,results,local-general,
52.140.7.131:443,52.140.7.131,443,True,206.17,,unknown,通用,,,,通用,results,local-general,
52.157.156.231:443,52.157.156.231,443,True,156.27,,unknown,通用,,,,通用,results,local-general,
52.175.30.9:443,52.175.30.9,443,True,159.1,,unknown,通用,,,,通用,results,local-general,
52.178.94.61:443,52.178.94.61,443,True,155.9,,unknown,通用,,,,通用,results,local-general,
52.233.143.240:443,52.233.143.240,443,True,155.85,,unknown,通用,,,,通用,results,local-general,
54.37.72.89:443,54.37.72.89,443,True,154.75,,unknown,通用,,,,通用,results,local-general,
54.75.58.210:443,54.75.58.210,443,False,,,unknown,通用,,,,通用,results,local-general,Timeout
54.193.107.175:1080,54.193.107.175,1080,True,1.84,机房,datacenter,美国,加州,圣何塞,"Amazon.com, Inc.",美国 圣何塞,socks5-proxy,socks5,
57.128.129.70:443,57.128.129.70,443,True,138.31,,unknown,通用,,,,通用,results,local-general,
64.201.141.139:443,64.201.141.139,443,False,,,unknown,通用,,,,通用,results,local-general,Timeout
65.109.40.163:8443,65.109.40.163,8443,True,180.85,,unknown,通用,,,,通用,results,local-general,
66.70.143.16:443,66.70.143.16,443,True,64.78,,unknown,通用,,,,通用,results,local-general,
69.164.195.111:443,69.164.195.111,443,True,40.16,,unknown,通用,,,,通用,results,local-general,
70.90.108.180:443,70.90.108.180,443,False,,,unknown,通用,,,,通用,results,local-general,Refused
72.80.179.139:443,72.80.179.139,443,True,72.33,,unknown,通用,,,,通用,results,local-general,
72.212.180.54:443,72.212.180.54,443,False,,,unknown,通用,,,,通用,results,local-general,Timeout
72.213.88.134:443,72.213.88.134,443,False,,,unknown,通用,,,,通用,results,local-general,Timeout
74.48.9.230:443,74.48.9.230,443,True,8.4,,unknown,通用,,,,通用,results,local-general,
74.48.24.219:1080,74.48.24.219,1080,True,8.52,机房,datacenter,美国,加州,洛杉矶,"Cloudflare, Inc.",美国 洛杉矶,socks5-proxy,socks5,
74.103.66.15:443,74.103.66.15,443,True,68.88,,unknown,通用,,,,通用,results,local-general,
74.103.66.18:443,74.103.66.18,443,True,68.6,,unknown,通用,,,,通用,results,local-general,
74.134.161.220:443,74.134.161.220,443,True,104.08,,unknown,通用,,,,通用,results,local-general,
74.207.244.164:443,74.207.244.164,443,False,,,unknown,通用,,,,通用,results,local-general,Timeout
74.208.84.191:443,74.208.84.191,443,True,58.16,,unknown,通用,,,,通用,results,local-general,
74.208.228.10:443,74.208.228.10,443,True,57.71,,unknown,通用,,,,通用,results,local-general,
77.65.70.50:5443,77.65.70.50,5443,True,178.61,,unknown,通用,,,,通用,results,local-general,
77.73.235.120:1080,77.73.235.120,1080,True,161.14,机房,datacenter,拉脱维亚,里加,里加,Beget LLC,拉脱维亚 里加,socks5-proxy,socks5,
77.81.71.62:443,77.81.71.62,443,True,185.36,,unknown,通用,,,,通用,results,local-general,
78.47.151.233:443,78.47.151.233,443,True,158.55,,unknown,通用,,,,通用,results,local-general,
79.117.3.198:443,79.117.3.198,443,False,,,unknown,通用,,,,通用,results,local-general,Timeout
79.133.217.232:443,79.133.217.232,443,True,168.76,,unknown,通用,,,,通用,results,local-general,
79.133.217.233:443,79.133.217.233,443,True,162.87,,unknown,通用,,,,通用,results,local-general,
79.133.217.236:443,79.133.217.236,443,True,167.86,,unknown,通用,,,,通用,results,local-general,
79.133.217.237:443,79.133.217.237,443,True,167.61,,unknown,通用,,,,通用,results,local-general,
79.139.56.178:443,79.139.56.178,443,True,160.58,,unknown,通用,,,,通用,results,local-general,
79.141.174.23:1080,79.141.174.23,1080,True,162.13,机房,datacenter,瑞典,斯德哥尔摩省,斯德哥尔摩,HZ NA30,瑞典 斯德哥尔摩,socks5-proxy,socks5,
79.188.239.40:8443,79.188.239.40,8443,True,179.84,,unknown,通用,,,,通用,results,local-general,
79.188.239.41:8443,79.188.239.41,8443,True,185.46,,unknown,通用,,,,通用,results,local-general,
79.188.239.42:8443,79.188.239.42,8443,True,179.68,,unknown,通用,,,,通用,results,local-general,
79.188.239.43:8443,79.188.239.43,8443,True,190.13,,unknown,通用,,,,通用,results,local-general,
79.188.239.44:8443,79.188.239.44,8443,True,191.06,,unknown,通用,,,,通用,results,local-general,
79.188.239.45:8443,79.188.239.45,8443,True,190.42,,unknown,通用,,,,通用,results,local-general,
79.188.239.46:8443,79.188.239.46,8443,True,191.03,,unknown,通用,,,,通用,results,local-general,
79.188.239.47:8443,79.188.239.47,8443,True,191.57,,unknown,通用,,,,通用,results,local-general,
80.11.220.238:443,80.11.220.238,443,True,162.32,,unknown,通用,,,,通用,results,local-general,
80.72.39.35:443,80.72.39.35,443,True,167.86,,unknown,通用,,,,通用,results,local-general,
80.77.112.216:443,80.77.112.216,443,True,167.91,,unknown,通用,,,,通用,results,local-general,
80.97.226.98:443,80.97.226.98,443,True,182.26,,unknown,通用,,,,通用,results,local-general,
80.154.6.4:443,80.154.6.4,443,False,,,unknown,通用,,,,通用,results,local-general,Timeout
81.25.50.12:8480,81.25.50.12,8480,True,192.56,,unknown,通用,,,,通用,results,local-general,
81.25.50.12:8481,81.25.50.12,8481,True,192.3,,unknown,通用,,,,通用,results,local-general,
81.34.37.187:443,81.34.37.187,443,False,,,unknown,通用,,,,通用,results,local-general,Timeout
81.171.24.164:443,81.171.24.164,443,True,157.72,,unknown,通用,,,,通用,results,local-general,
82.64.46.151:443,82.64.46.151,443,True,163.8,,unknown,通用,,,,通用,results,local-general,
82.67.119.68:443,82.67.119.68,443,True,157.47,,unknown,通用,,,,通用,results,local-general,
82.196.220.217:443,82.196.220.217,443,True,155.87,,unknown,通用,,,,通用,results,local-general,
83.13.36.250:443,83.13.36.250,443,True,191.31,,unknown,通用,,,,通用,results,local-general,
83.103.36.213:443,83.103.36.213,443,True,152.55,,unknown,通用,,,,通用,results,local-general,
84.72.72.153:443,84.72.72.153,443,True,161.15,,unknown,通用,,,,通用,results,local-general,
84.145.134.55:443,84.145.134.55,443,False,,,unknown,通用,,,,通用,results,local-general,Timeout
85.118.37.254:443,85.118.37.254,443,False,,,unknown,通用,,,,通用,results,local-general,Timeout
85.120.81.108:1080,85.120.81.108,1080,True,194.12,家宽,residential,摩尔多瓦,基希讷乌市,基希讷乌,AlexHost SRL,摩尔多瓦 基希讷乌,socks5-proxy,socks5,
85.158.220.164:443,85.158.220.164,443,True,185.72,,unknown,通用,,,,通用,results,local-general,
85.193.234.121:5443,85.193.234.121,5443,True,167.31,,unknown,通用,,,,通用,results,local-general,
86.132.233.52:4433,86.132.233.52,4433,False,,,unknown,通用,,,,通用,results,local-general,Timeout
87.238.253.66:443,87.238.253.66,443,True,147.8,,unknown,通用,,,,通用,results,local-general,
88.135.143.159:443,88.135.143.159,443,True,175.07,,unknown,通用,,,,通用,results,local-general,
88.197.53.165:443,88.197.53.165,443,True,191.75,,unknown,通用,,,,通用,results,local-general,
89.33.44.23:443,89.33.44.23,443,True,185.62,,unknown,通用,,,,通用,results,local-general,
89.117.77.215:443,89.117.77.215,443,True,67.94,,unknown,通用,,,,通用,results,local-general,
89.234.183.82:443,89.234.183.82,443,True,152.84,,unknown,通用,,,,通用,results,local-general,
91.2.28.230:4443,91.2.28.230,4443,False,,,unknown,通用,,,,通用,results,local-general,Timeout
91.135.75.44:443,91.135.75.44,443,True,164.03,,unknown,通用,,,,通用,results,local-general,
91.227.97.113:443,91.227.97.113,443,True,161.02,,unknown,通用,,,,通用,results,local-general,
92.127.226.0:1080,92.127.226.0,1080,True,211.31,家宽,residential,俄罗斯,新西伯利亚州,新西伯利亚,"OJSC ""Sibirtelecom""",俄罗斯 新西伯利亚,socks5-proxy,socks5,
92.242.41.77:443,92.242.41.77,443,True,188.43,,unknown,通用,,,,通用,results,local-general,
93.63.43.131:443,93.63.43.131,443,True,173.37,,unknown,通用,,,,通用,results,local-general,
93.115.26.111:443,93.115.26.111,443,True,182.37,,unknown,通用,,,,通用,results,local-general,
93.180.217.254:443,93.180.217.254,443,False,,,unknown,通用,,,,通用,results,local-general,Timeout
94.125.55.14:1080,94.125.55.14,1080,False,,机房,datacenter,俄罗斯,哈巴罗夫斯克边疆区,伯力,REDCOM Broadband Block 3 for flat-rate access,俄罗斯 伯力,socks5-proxy,socks5,Timeout
94.228.188.131:443,94.228.188.131,443,False,,,unknown,通用,,,,通用,results,local-general,Timeout
94.246.130.82:443,94.246.130.82,443,True,181.82,,unknown,通用,,,,通用,results,local-general,
94.246.130.82:5443,94.246.130.82,5443,True,170.69,,unknown,通用,,,,通用,results,local-general,
95.48.178.162:11443,95.48.178.162,11443,True,178.51,,unknown,通用,,,,通用,results,local-general,
95.51.57.25:9443,95.51.57.25,9443,True,211.29,,unknown,通用,,,,通用,results,local-general,
95.104.231.79:443,95.104.231.79,443,True,223.86,,unknown,通用,,,,通用,results,local-general,
95.110.141.122:8888,95.110.141.122,8888,True,154.31,,unknown,通用,,,,通用,results,local-general,
95.164.1.87:443,95.164.1.87,443,True,199.07,,unknown,通用,,,,通用,results,local-general,
95.170.144.32:1080,95.170.144.32,1080,True,229.14,机房,datacenter,俄罗斯,托木斯克州,托木斯克,2nd subnet of TOMSK branch.,俄罗斯 托木斯克,socks5-proxy,socks5,
95.183.53.35:443,95.183.53.35,443,True,175.66,,unknown,通用,,,,通用,results,local-general,
95.213.206.11:8008,95.213.206.11,8008,True,181.88,,unknown,通用,,,,通用,results,local-general,
95.213.206.11:8009,95.213.206.11,8009,True,1231.39,,unknown,通用,,,,通用,results,local-general,
95.217.233.255:443,95.217.233.255,443,True,180.06,,unknown,通用,,,,通用,results,local-general,
95.253.143.236:443,95.253.143.236,443,True,174.51,,unknown,通用,,,,通用,results,local-general,
98.109.32.249:443,98.109.32.249,443,True,73.98,,unknown,通用,,,,通用,results,local-general,
98.168.113.194:443,98.168.113.194,443,True,113.66,,unknown,通用,,,,通用,results,local-general,
101.33.74.115:20000,101.33.74.115,20000,True,127.78,,unknown,韩国,,,,韩国,ResultsAHT,local-AHT,
101.33.79.182:1080,101.33.79.182,1080,False,,,unknown,韩国,,,,韩国,ResultsAHT,local-AHT,Timeout
101.33.80.72:1080,101.33.80.72,1080,False,,,unknown,韩国,,,,韩国,ResultsAHT,local-AHT,Timeout
101.89.121.209:1080,101.89.121.209,1080,False,,,unknown,中国,,,,中国,ResultsCN,local-CN,Refused
101.89.148.118:1080,101.89.148.118,1080,False,,,unknown,中国,,,,中国,ResultsCN,local-CN,Refused
101.89.216.23:1080,101.89.216.23,1080,False,,,unknown,中国,,,,中国,ResultsCN,local-CN,Refused
101.91.170.6:1080,101.91.170.6,1080,False,,,unknown,中国,,,,中国,ResultsCN,local-CN,Refused
101.91.216.235:1080,101.91.216.235,1080,False,,,unknown,中国,,,,中国,ResultsCN,local-CN,Timeout
101.91.226.106:1080,101.91.226.106,1080,False,,,unknown,中国,,,,中国,ResultsCN,local-CN,Refused
101.201.247.245:1080,101.201.247.245,1080,False,,,unknown,中国,,,,中国,ResultsCN,local-CN,Timeout
103.1.100.17:443,103.1.100.17,443,True,234.34,,unknown,通用,,,,通用,results,local-general,
103.3.63.59:443,103.3.63.59,443,True,170.72,,unknown,通用,,,,通用,results,local-general,
103.13.168.105:443,103.13.168.105,443,True,112.36,,unknown,通用,,,,通用,results,local-general,
103.27.157.73:1080,103.27.157.73,1080,True,153.73,机房,datacenter,德国,黑森州,法兰克福,"Cloudflare, Inc.",德国 法兰克福,socks5-proxy,socks5,
103.87.175.33:443,103.87.175.33,443,False,,,unknown,通用,,,,通用,results,local-general,Timeout
103.104.73.130:443,103.104.73.130,443,True,244.64,,unknown,通用,,,,通用,results,local-general,
103.113.118.6:443,103.113.118.6,443,False,,,unknown,通用,,,,通用,results,local-general,Timeout
103.129.152.198:443,103.129.152.198,443,True,198.46,,unknown,通用,,,,通用,results,local-general,
103.146.26.237:1080,103.146.26.237,1080,True,199.92,机房,datacenter,印度尼西亚,,亚齐特别行政区,PT Indomedia Solusi net,印度尼西亚 亚齐特别行政区,socks5-proxy,socks5,
103.206.68.232:1080,103.206.68.232,1080,True,211.65,家宽,residential,柬埔寨,金边,金边,"Cogetel Ltd, Online ISP, Cambodia",柬埔寨 金边,socks5-proxy,socks5,
103.206.68.241:1080,103.206.68.241,1080,True,196.57,家宽,residential,柬埔寨,金边,金边,"Cogetel Ltd, Online ISP, Cambodia",柬埔寨 金边,socks5-proxy,socks5,
103.248.60.168:443,103.248.60.168,443,False,,,unknown,通用,,,,通用,results,local-general,Timeout
104.16.102.209:443,104.16.102.209,443,True,1.91,,unknown,,,,,,edgetunnel-output,cloudflare,
104.16.119.247:443,104.16.119.247,443,True,2.19,,unknown,,,,,,edgetunnel-output,cloudflare,
104.16.140.188:443,104.16.140.188,443,True,1.61,,unknown,,,,,,edgetunnel-output,cloudflare,
104.16.145.127:443,104.16.145.127,443,True,1.64,,unknown,,,,,,bestcf,proxy,
104.16.154.19:443,104.16.154.19,443,True,1.69,,unknown,,,,,,bestcf,proxy,
104.16.155.95:443,104.16.155.95,443,True,1.29,,unknown,,,,,,bestcf,proxy,
104.17.17.232:443,104.17.17.232,443,True,1.54,,unknown,,,,,,bestcf,proxy,
104.17.61.243:443,104.17.61.243,443,True,2.23,,unknown,,,,,,bestcf,proxy,
104.17.139.79:443,104.17.139.79,443,True,1.66,,unknown,,,,,,edgetunnel-output,cloudflare,
104.17.147.188:443,104.17.147.188,443,True,1.43,,unknown,,,,,,edgetunnel-output,cloudflare,
104.17.154.71:443,104.17.154.71,443,True,1.62,,unknown,,,,,,bestcf,proxy,
104.17.169.207:443,104.17.169.207,443,True,1.54,,unknown,,,,,,edgetunnel-output,cloudflare,
104.17.180.179:443,104.17.180.179,443,True,1.49,,unknown,,,,,,edgetunnel-output,cloudflare,
104.17.193.87:443,104.17.193.87,443,True,1.77,,unknown,,,,,,edgetunnel-output,cloudflare,
104.17.199.208:443,104.17.199.208,443,True,1.5,,unknown,,,,,,edgetunnel-output,cloudflare,
104.17.239.102:443,104.17.239.102,443,True,1.4,,unknown,,,,,,edgetunnel-output,cloudflare,
104.18.71.23:443,104.18.71.23,443,True,1.86,,unknown,,,,,,edgetunnel-output,cloudflare,
104.18.137.67:443,104.18.137.67,443,True,2.12,,unknown,,,,,,edgetunnel-output,cloudflare,
104.18.154.49:443,104.18.154.49,443,True,1.47,,unknown,,,,,,edgetunnel-output,cloudflare,
104.18.161.212:443,104.18.161.212,443,True,2.18,,unknown,,,,,,edgetunnel-output,cloudflare,
104.18.204.152:443,104.18.204.152,443,True,1.49,,unknown,,,,,,edgetunnel-output,cloudflare,
104.19.7.141:443,104.19.7.141,443,True,1.53,,unknown,,,,,,edgetunnel-output,cloudflare,
104.19.11.5:443,104.19.11.5,443,True,1.63,,unknown,,,,,,edgetunnel-output,cloudflare,
104.19.14.167:443,104.19.14.167,443,True,1.44,,unknown,,,,,,edgetunnel-output,cloudflare,
104.19.30.35:443,104.19.30.35,443,True,2.08,,unknown,,,,,,edgetunnel-output,cloudflare,
104.19.38.63:443,104.19.38.63,443,True,3.23,,unknown,,,,,,bestcf,proxy,
104.19.51.79:443,104.19.51.79,443,True,1.68,,unknown,,,,,,bestcf,proxy,
104.19.54.86:443,104.19.54.86,443,True,2.01,,unknown,,,,,,bestcf,proxy,
104.19.63.169:443,104.19.63.169,443,True,1.73,,unknown,,,,,,edgetunnel-output,cloudflare,
104.19.223.154:443,104.19.223.154,443,True,2.01,,unknown,,,,,,edgetunnel-output,cloudflare,
104.20.8.33:443,104.20.8.33,443,True,1.67,,unknown,,,,,,edgetunnel-output,cloudflare,
104.21.8.0:443,104.21.8.0,443,True,2.05,,unknown,,,,,,edgetunnel-output,cloudflare,
104.21.52.9:443,104.21.52.9,443,True,1.98,,unknown,,,,,,edgetunnel-output,cloudflare,
104.21.57.87:443,104.21.57.87,443,True,1.81,,unknown,,,,,,edgetunnel-output,cloudflare,
104.21.85.148:443,104.21.85.148,443,True,1.79,,unknown,,,,,,edgetunnel-output,cloudflare,
104.21.91.105:443,104.21.91.105,443,True,1.87,,unknown,,,,,,edgetunnel-output,cloudflare,
104.21.193.250:443,104.21.193.250,443,True,2.24,,unknown,,,,,,edgetunnel-output,cloudflare,
104.21.216.197:443,104.21.216.197,443,True,1.74,,unknown,,,,,,edgetunnel-output,cloudflare,
104.24.6.203:443,104.24.6.203,443,True,1.68,,unknown,,,,,,edgetunnel-output,cloudflare,
104.24.71.223:443,104.24.71.223,443,True,1.78,,unknown,,,,,,edgetunnel-output,cloudflare,
104.24.74.216:443,104.24.74.216,443,True,2.18,,unknown,,,,,,edgetunnel-output,cloudflare,
104.24.210.19:443,104.24.210.19,443,True,1.7,,unknown,,,,,,edgetunnel-output,cloudflare,
104.25.32.116:443,104.25.32.116,443,True,1.78,,unknown,,,,,,edgetunnel-output,cloudflare,
104.25.60.168:443,104.25.60.168,443,True,1.64,,unknown,,,,,,edgetunnel-output,cloudflare,
104.25.66.156:443,104.25.66.156,443,True,1.68,,unknown,,,,,,edgetunnel-output,cloudflare,
104.25.164.108:443,104.25.164.108,443,True,2.0,,unknown,,,,,,edgetunnel-output,cloudflare,
104.25.185.17:443,104.25.185.17,443,True,1.81,,unknown,,,,,,edgetunnel-output,cloudflare,
104.25.195.155:443,104.25.195.155,443,True,1.7,,unknown,,,,,,edgetunnel-output,cloudflare,
104.27.29.81:443,104.27.29.81,443,True,2.08,,unknown,,,,,,edgetunnel-output,cloudflare,
104.27.66.52:443,104.27.66.52,443,True,1.66,,unknown,,,,,,edgetunnel-output,cloudflare,
104.130.142.41:443,104.130.142.41,443,False,,,unknown,通用,,,,通用,results,local-general,Timeout
104.196.176.148:443,104.196.176.148,443,False,,,unknown,通用,,,,通用,results,local-general,Timeout
104.218.50.155:443,104.218.50.155,443,True,76.57,,unknown,通用,,,,通用,results,local-general,
104.236.195.215:443,104.236.195.215,443,True,83.1,,unknown,通用,,,,通用,results,local-general,
104.236.205.59:443,104.236.205.59,443,True,78.98,,unknown,通用,,,,通用,results,local-general,
106.14.80.214:443,106.14.80.214,443,True,188.66,,unknown,通用,,,,通用,results,local-general,
106.14.150.205:443,106.14.150.205,443,True,192.12,,unknown,通用,,,,通用,results,local-general,
106.75.26.70:443,106.75.26.70,443,True,211.35,,unknown,通用,,,,通用,results,local-general,
106.227.92.105:7198,106.227.92.105,7198,True,201.62,,unknown,中国,,,,中国,ResultsCN,local-CN,
107.163.195.2:10000,107.163.195.2,10000,False,,,unknown,美国,,,,美国,resultsUS,local-US,Timeout
107.163.195.6:10000,107.163.195.6,10000,False,,,unknown,美国,,,,美国,resultsUS,local-US,Timeout
107.163.195.9:10000,107.163.195.9,10000,False,,,unknown,美国,,,,美国,resultsUS,local-US,Timeout
107.163.195.10:10000,107.163.195.10,10000,False,,,unknown,美国,,,,美国,resultsUS,local-US,Timeout
107.163.195.15:10000,107.163.195.15,10000,False,,,unknown,美国,,,,美国,resultsUS,local-US,Timeout
107.163.195.16:10000,107.163.195.16,10000,False,,,unknown,美国,,,,美国,resultsUS,local-US,Timeout
107.163.195.17:10000,107.163.195.17,10000,False,,,unknown,美国,,,,美国,resultsUS,local-US,Timeout
107.163.195.18:10000,107.163.195.18,10000,False,,,unknown,美国,,,,美国,resultsUS,local-US,Timeout
107.163.195.20:10000,107.163.195.20,10000,False,,,unknown,美国,,,,美国,resultsUS,local-US,Timeout
107.163.195.21:10000,107.163.195.21,10000,False,,,unknown,美国,,,,美国,resultsUS,local-US,Timeout
107.163.195.23:10000,107.163.195.23,10000,False,,,unknown,美国,,,,美国,resultsUS,local-US,Timeout
107.163.195.25:10000,107.163.195.25,10000,False,,,unknown,美国,,,,美国,resultsUS,local-US,Timeout
107.163.195.26:10000,107.163.195.26,10000,False,,,unknown,美国,,,,美国,resultsUS,local-US,Timeout
107.163.195.28:10000,107.163.195.28,10000,False,,,unknown,美国,,,,美国,resultsUS,local-US,Timeout
107.163.195.32:10000,107.163.195.32,10000,False,,,unknown,美国,,,,美国,resultsUS,local-US,Timeout
107.163.195.33:10000,107.163.195.33,10000,False,,,unknown,美国,,,,美国,resultsUS,local-US,Timeout
107.163.195.34:10000,107.163.195.34,10000,False,,,unknown,美国,,,,美国,resultsUS,local-US,Timeout
107.163.195.35:10000,107.163.195.35,10000,False,,,unknown,美国,,,,美国,resultsUS,local-US,Timeout
107.163.195.36:10000,107.163.195.36,10000,False,,,unknown,美国,,,,美国,resultsUS,local-US,Timeout
107.163.195.37:10000,107.163.195.37,10000,False,,,unknown,美国,,,,美国,resultsUS,local-US,Timeout
107.163.195.38:10000,107.163.195.38,10000,False,,,unknown,美国,,,,美国,resultsUS,local-US,Timeout
107.163.195.39:10000,107.163.195.39,10000,False,,,unknown,美国,,,,美国,resultsUS,local-US,Timeout
107.163.195.41:10000,107.163.195.41,10000,False,,,unknown,美国,,,,美国,resultsUS,local-US,Timeout
107.163.195.42:10000,107.163.195.42,10000,False,,,unknown,美国,,,,美国,resultsUS,local-US,Timeout
107.163.195.43:10000,107.163.195.43,10000,False,,,unknown,美国,,,,美国,resultsUS,local-US,Timeout
107.163.195.44:10000,107.163.195.44,10000,False,,,unknown,美国,,,,美国,resultsUS,local-US,Timeout
107.163.195.45:10000,107.163.195.45,10000,False,,,unknown,美国,,,,美国,resultsUS,local-US,Timeout
107.163.195.47:10000,107.163.195.47,10000,False,,,unknown,美国,,,,美国,resultsUS,local-US,Timeout
107.163.195.48:10000,107.163.195.48,10000,False,,,unknown,美国,,,,美国,resultsUS,local-US,Timeout
107.163.195.49:10000,107.163.195.49,10000,False,,,unknown,美国,,,,美国,resultsUS,local-US,Timeout
107.163.195.51:10000,107.163.195.51,10000,False,,,unknown,美国,,,,美国,resultsUS,local-US,Timeout
107.163.195.52:10000,107.163.195.52,10000,False,,,unknown,美国,,,,美国,resultsUS,local-US,Timeout
107.163.195.55:10000,107.163.195.55,10000,False,,,unknown,美国,,,,美国,resultsUS,local-US,Timeout
107.163.195.57:10000,107.163.195.57,10000,False,,,unknown,美国,,,,美国,resultsUS,local-US,Timeout
107.163.195.58:10000,107.163.195.58,10000,False,,,unknown,美国,,,,美国,resultsUS,local-US,Timeout
107.163.195.61:10000,107.163.195.61,10000,False,,,unknown,美国,,,,美国,resultsUS,local-US,Timeout
107.163.195.63:10000,107.163.195.63,10000,False,,,unknown,美国,,,,美国,resultsUS,local-US,Timeout
107.163.195.65:10000,107.163.195.65,10000,False,,,unknown,美国,,,,美国,resultsUS,local-US,Timeout
107.163.195.66:10000,107.163.195.66,10000,False,,,unknown,美国,,,,美国,resultsUS,local-US,Timeout
107.163.195.67:10000,107.163.195.67,10000,False,,,unknown,美国,,,,美国,resultsUS,local-US,Timeout
107.163.195.74:10000,107.163.195.74,10000,False,,,unknown,美国,,,,美国,resultsUS,local-US,Timeout
107.163.195.76:10000,107.163.195.76,10000,False,,,unknown,美国,,,,美国,resultsUS,local-US,Timeout
107.163.195.77:10000,107.163.195.77,10000,False,,,unknown,美国,,,,美国,resultsUS,local-US,Timeout
107.163.195.78:10000,107.163.195.78,10000,False,,,unknown,美国,,,,美国,resultsUS,local-US,Timeout
107.163.195.79:10000,107.163.195.79,10000,False,,,unknown,美国,,,,美国,resultsUS,local-US,Timeout
107.163.195.80:10000,107.163.195.80,10000,False,,,unknown,美国,,,,美国,resultsUS,local-US,Timeout
107.163.195.82:10000,107.163.195.82,10000,False,,,unknown,美国,,,,美国,resultsUS,local-US,Timeout
107.163.195.83:10000,107.163.195.83,10000,False,,,unknown,美国,,,,美国,resultsUS,local-US,Timeout
107.163.195.85:10000,107.163.195.85,10000,False,,,unknown,美国,,,,美国,resultsUS,local-US,Timeout
107.163.195.87:10000,107.163.195.87,10000,False,,,unknown,美国,,,,美国,resultsUS,local-US,Timeout
107.163.195.88:10000,107.163.195.88,10000,False,,,unknown,美国,,,,美国,resultsUS,local-US,Timeout
107.163.195.89:10000,107.163.195.89,10000,False,,,unknown,美国,,,,美国,resultsUS,local-US,Timeout
107.163.195.90:10000,107.163.195.90,10000,False,,,unknown,美国,,,,美国,resultsUS,local-US,Timeout
107.163.195.91:10000,107.163.195.91,10000,False,,,unknown,美国,,,,美国,resultsUS,local-US,Timeout
107.163.195.92:10000,107.163.195.92,10000,False,,,unknown,美国,,,,美国,resultsUS,local-US,Timeout
107.163.195.94:10000,107.163.195.94,10000,False,,,unknown,美国,,,,美国,resultsUS,local-US,Timeout
107.163.195.95:10000,107.163.195.95,10000,False,,,unknown,美国,,,,美国,resultsUS,local-US,Timeout
107.163.195.97:10000,107.163.195.97,10000,False,,,unknown,美国,,,,美国,resultsUS,local-US,Timeout
107.163.195.102:10000,107.163.195.102,10000,False,,,unknown,美国,,,,美国,resultsUS,local-US,Timeout
107.163.195.103:10000,107.163.195.103,10000,False,,,unknown,美国,,,,美国,resultsUS,local-US,Timeout
107.163.195.108:10000,107.163.195.108,10000,False,,,unknown,美国,,,,美国,resultsUS,local-US,Timeout
107.163.195.109:10000,107.163.195.109,10000,False,,,unknown,美国,,,,美国,resultsUS,local-US,Timeout
107.163.195.110:10000,107.163.195.110,10000,False,,,unknown,美国,,,,美国,resultsUS,local-US,Timeout
107.163.195.113:10000,107.163.195.113,10000,False,,,unknown,美国,,,,美国,resultsUS,local-US,Timeout
107.163.195.114:10000,107.163.195.114,10000,False,,,unknown,美国,,,,美国,resultsUS,local-US,Timeout
107.163.195.116:10000,107.163.195.116,10000,False,,,unknown,美国,,,,美国,resultsUS,local-US,Timeout
107.163.195.118:10000,107.163.195.118,10000,False,,,unknown,美国,,,,美国,resultsUS,local-US,Timeout
107.163.195.124:10000,107.163.195.124,10000,False,,,unknown,美国,,,,美国,resultsUS,local-US,Timeout
107.163.195.128:10000,107.163.195.128,10000,False,,,unknown,美国,,,,美国,resultsUS,local-US,Timeout
107.163.195.130:10000,107.163.195.130,10000,False,,,unknown,美国,,,,美国,resultsUS,local-US,Timeout
107.163.195.131:10000,107.163.195.131,10000,False,,,unknown,美国,,,,美国,resultsUS,local-US,Timeout
107.163.195.132:10000,107.163.195.132,10000,False,,,unknown,美国,,,,美国,resultsUS,local-US,Timeout
107.163.195.138:10000,107.163.195.138,10000,False,,,unknown,美国,,,,美国,resultsUS,local-US,Timeout
107.163.195.139:10000,107.163.195.139,10000,False,,,unknown,美国,,,,美国,resultsUS,local-US,Timeout
107.163.195.140:10000,107.163.195.140,10000,False,,,unknown,美国,,,,美国,resultsUS,local-US,Timeout
107.163.195.141:10000,107.163.195.141,10000,False,,,unknown,美国,,,,美国,resultsUS,local-US,Timeout
107.163.195.142:10000,107.163.195.142,10000,False,,,unknown,美国,,,,美国,resultsUS,local-US,Timeout
107.163.195.144:10000,107.163.195.144,10000,False,,,unknown,美国,,,,美国,resultsUS,local-US,Timeout
107.163.195.145:10000,107.163.195.145,10000,False,,,unknown,美国,,,,美国,resultsUS,local-US,Timeout
107.163.195.146:10000,107.163.195.146,10000,False,,,unknown,美国,,,,美国,resultsUS,local-US,Timeout
107.163.195.147:10000,107.163.195.147,10000,False,,,unknown,美国,,,,美国,resultsUS,local-US,Timeout
107.163.195.149:10000,107.163.195.149,10000,False,,,unknown,美国,,,,美国,resultsUS,local-US,Timeout
107.163.195.153:10000,107.163.195.153,10000,False,,,unknown,美国,,,,美国,resultsUS,local-US,Timeout
107.163.195.154:10000,107.163.195.154,10000,False,,,unknown,美国,,,,美国,resultsUS,local-US,Timeout
107.163.195.155:10000,107.163.195.155,10000,False,,,unknown,美国,,,,美国,resultsUS,local-US,Timeout
107.163.195.156:10000,107.163.195.156,10000,False,,,unknown,美国,,,,美国,resultsUS,local-US,Timeout
107.163.195.157:10000,107.163.195.157,10000,False,,,unknown,美国,,,,美国,resultsUS,local-US,Timeout
107.163.195.160:10000,107.163.195.160,10000,False,,,unknown,美国,,,,美国,resultsUS,local-US,Timeout
107.163.195.164:10000,107.163.195.164,10000,False,,,unknown,美国,,,,美国,resultsUS,local-US,Timeout
107.163.195.165:10000,107.163.195.165,10000,False,,,unknown,美国,,,,美国,resultsUS,local-US,Timeout
107.163.195.168:10000,107.163.195.168,10000,False,,,unknown,美国,,,,美国,resultsUS,local-US,Timeout
107.163.195.169:10000,107.163.195.169,10000,False,,,unknown,美国,,,,美国,resultsUS,local-US,Timeout
107.163.195.171:10000,107.163.195.171,10000,False,,,unknown,美国,,,,美国,resultsUS,local-US,Timeout
107.163.195.172:10000,107.163.195.172,10000,False,,,unknown,美国,,,,美国,resultsUS,local-US,Timeout
107.163.195.173:10000,107.163.195.173,10000,False,,,unknown,美国,,,,美国,resultsUS,local-US,Timeout
107.163.195.174:10000,107.163.195.174,10000,False,,,unknown,美国,,,,美国,resultsUS,local-US,Timeout
107.163.195.176:10000,107.163.195.176,10000,False,,,unknown,美国,,,,美国,resultsUS,local-US,Timeout
107.163.195.177:10000,107.163.195.177,10000,False,,,unknown,美国,,,,美国,resultsUS,local-US,Timeout
107.163.195.180:10000,107.163.195.180,10000,False,,,unknown,美国,,,,美国,resultsUS,local-US,Timeout
107.163.195.182:10000,107.163.195.182,10000,False,,,unknown,美国,,,,美国,resultsUS,local-US,Timeout
107.163.195.185:10000,107.163.195.185,10000,False,,,unknown,美国,,,,美国,resultsUS,local-US,Timeout
107.163.195.186:10000,107.163.195.186,10000,False,,,unknown,美国,,,,美国,resultsUS,local-US,Timeout
107.163.195.187:10000,107.163.195.187,10000,False,,,unknown,美国,,,,美国,resultsUS,local-US,Timeout
107.163.195.189:10000,107.163.195.189,10000,False,,,unknown,美国,,,,美国,resultsUS,local-US,Timeout
107.163.195.190:10000,107.163.195.190,10000,False,,,unknown,美国,,,,美国,resultsUS,local-US,Timeout
107.163.195.191:10000,107.163.195.191,10000,False,,,unknown,美国,,,,美国,resultsUS,local-US,Timeout
107.163.195.192:10000,107.163.195.192,10000,False,,,unknown,美国,,,,美国,resultsUS,local-US,Timeout
107.163.195.193:10000,107.163.195.193,10000,False,,,unknown,美国,,,,美国,resultsUS,local-US,Timeout
107.163.195.194:10000,107.163.195.194,10000,False,,,unknown,美国,,,,美国,resultsUS,local-US,Timeout
107.163.195.196:10000,107.163.195.196,10000,False,,,unknown,美国,,,,美国,resultsUS,local-US,Timeout
107.163.195.198:10000,107.163.195.198,10000,False,,,unknown,美国,,,,美国,resultsUS,local-US,Timeout
107.163.195.199:10000,107.163.195.199,10000,False,,,unknown,美国,,,,美国,resultsUS,local-US,Timeout
107.163.195.202:10000,107.163.195.202,10000,False,,,unknown,美国,,,,美国,resultsUS,local-US,Timeout
107.163.195.203:10000,107.163.195.203,10000,False,,,unknown,美国,,,,美国,resultsUS,local-US,Timeout
107.163.195.204:10000,107.163.195.204,10000,False,,,unknown,美国,,,,美国,resultsUS,local-US,Timeout
107.163.195.205:10000,107.163.195.205,10000,False,,,unknown,美国,,,,美国,resultsUS,local-US,Timeout
107.163.195.207:10000,107.163.195.207,10000,False,,,unknown,美国,,,,美国,resultsUS,local-US,Timeout
107.163.195.208:10000,107.163.195.208,10000,False,,,unknown,美国,,,,美国,resultsUS,local-US,Timeout
107.163.195.209:10000,107.163.195.209,10000,False,,,unknown,美国,,,,美国,resultsUS,local-US,Timeout
107.163.195.210:10000,107.163.195.210,10000,False,,,unknown,美国,,,,美国,resultsUS,local-US,Timeout
107.163.195.213:10000,107.163.195.213,10000,False,,,unknown,美国,,,,美国,resultsUS,local-US,Timeout
107.163.195.216:10000,107.163.195.216,10000,False,,,unknown,美国,,,,美国,resultsUS,local-US,Timeout
107.163.195.218:10000,107.163.195.218,10000,False,,,unknown,美国,,,,美国,resultsUS,local-US,Timeout
107.163.195.219:10000,107.163.195.219,10000,False,,,unknown,美国,,,,美国,resultsUS,local-US,Timeout
107.163.195.220:10000,107.163.195.220,10000,False,,,unknown,美国,,,,美国,resultsUS,local-US,Timeout
107.163.195.221:10000,107.163.195.221,10000,False,,,unknown,美国,,,,美国,resultsUS,local-US,Timeout
107.163.195.222:10000,107.163.195.222,10000,False,,,unknown,美国,,,,美国,resultsUS,local-US,Timeout
107.163.195.223:10000,107.163.195.223,10000,False,,,unknown,美国,,,,美国,resultsUS,local-US,Timeout
107.163.195.225:10000,107.163.195.225,10000,False,,,unknown,美国,,,,美国,resultsUS,local-US,Timeout
107.163.195.229:10000,107.163.195.229,10000,False,,,unknown,美国,,,,美国,resultsUS,local-US,Timeout
107.163.195.230:10000,107.163.195.230,10000,False,,,unknown,美国,,,,美国,resultsUS,local-US,Timeout
107.163.195.232:10000,107.163.195.232,10000,False,,,unknown,美国,,,,美国,resultsUS,local-US,Timeout
107.163.195.234:10000,107.163.195.234,10000,False,,,unknown,美国,,,,美国,resultsUS,local-US,Timeout
107.163.195.235:10000,107.163.195.235,10000,False,,,unknown,美国,,,,美国,resultsUS,local-US,Timeout
107.163.195.236:10000,107.163.195.236,10000,False,,,unknown,美国,,,,美国,resultsUS,local-US,Timeout
107.163.195.239:10000,107.163.195.239,10000,False,,,unknown,美国,,,,美国,resultsUS,local-US,Timeout
107.163.195.242:10000,107.163.195.242,10000,False,,,unknown,美国,,,,美国,resultsUS,local-US,Timeout
107.163.195.244:10000,107.163.195.244,10000,False,,,unknown,美国,,,,美国,resultsUS,local-US,Timeout
107.163.195.245:10000,107.163.195.245,10000,False,,,unknown,美国,,,,美国,resultsUS,local-US,Timeout
107.163.195.247:10000,107.163.195.247,10000,False,,,unknown,美国,,,,美国,resultsUS,local-US,Timeout
107.163.195.248:10000,107.163.195.248,10000,False,,,unknown,美国,,,,美国,resultsUS,local-US,Timeout
107.163.195.251:10000,107.163.195.251,10000,False,,,unknown,美国,,,,美国,resultsUS,local-US,Timeout
107.163.195.252:10000,107.163.195.252,10000,False,,,unknown,美国,,,,美国,resultsUS,local-US,Timeout
107.163.195.253:10000,107.163.195.253,10000,False,,,unknown,美国,,,,美国,resultsUS,local-US,Timeout
107.163.198.2:10000,107.163.198.2,10000,False,,,unknown,美国,,,,美国,resultsUS,local-US,Refused
107.163.198.4:10000,107.163.198.4,10000,False,,,unknown,美国,,,,美国,resultsUS,local-US,Refused
107.163.198.5:10000,107.163.198.5,10000,False,,,unknown,美国,,,,美国,resultsUS,local-US,Refused
107.163.198.6:10000,107.163.198.6,10000,False,,,unknown,美国,,,,美国,resultsUS,local-US,Refused
107.163.198.10:10000,107.163.198.10,10000,False,,,unknown,美国,,,,美国,resultsUS,local-US,Refused
107.163.198.12:10000,107.163.198.12,10000,False,,,unknown,美国,,,,美国,resultsUS,local-US,Refused
107.163.198.13:10000,107.163.198.13,10000,False,,,unknown,美国,,,,美国,resultsUS,local-US,Refused
107.163.198.17:10000,107.163.198.17,10000,False,,,unknown,美国,,,,美国,resultsUS,local-US,Refused
107.163.198.19:10000,107.163.198.19,10000,False,,,unknown,美国,,,,美国,resultsUS,local-US,Refused
107.163.198.21:10000,107.163.198.21,10000,False,,,unknown,美国,,,,美国,resultsUS,local-US,Refused
107.163.198.22:10000,107.163.198.22,10000,False,,,unknown,美国,,,,美国,resultsUS,local-US,Refused
107.163.198.28:10000,107.163.198.28,10000,False,,,unknown,美国,,,,美国,resultsUS,local-US,Refused
107.163.198.31:10000,107.163.198.31,10000,False,,,unknown,美国,,,,美国,resultsUS,local-US,Refused
107.163.198.32:10000,107.163.198.32,10000,False,,,unknown,美国,,,,美国,resultsUS,local-US,Refused
107.163.198.33:10000,107.163.198.33,10000,False,,,unknown,美国,,,,美国,resultsUS,local-US,Refused
107.163.198.34:10000,107.163.198.34,10000,False,,,unknown,美国,,,,美国,resultsUS,local-US,Refused
107.163.198.35:10000,107.163.198.35,10000,False,,,unknown,美国,,,,美国,resultsUS,local-US,Refused
107.163.198.39:10000,107.163.198.39,10000,False,,,unknown,美国,,,,美国,resultsUS,local-US,Refused
107.163.198.40:10000,107.163.198.40,10000,False,,,unknown,美国,,,,美国,resultsUS,local-US,Refused
107.163.198.44:10000,107.163.198.44,10000,False,,,unknown,美国,,,,美国,resultsUS,local-US,Refused
107.163.198.47:10000,107.163.198.47,10000,False,,,unknown,美国,,,,美国,resultsUS,local-US,Refused
107.163.198.48:10000,107.163.198.48,10000,False,,,unknown,美国,,,,美国,resultsUS,local-US,Refused
107.163.198.50:10000,107.163.198.50,10000,False,,,unknown,美国,,,,美国,resultsUS,local-US,Refused
107.163.198.53:10000,107.163.198.53,10000,False,,,unknown,美国,,,,美国,resultsUS,local-US,Refused
107.163.198.54:10000,107.163.198.54,10000,False,,,unknown,美国,,,,美国,resultsUS,local-US,Refused
107.163.198.55:10000,107.163.198.55,10000,False,,,unknown,美国,,,,美国,resultsUS,local-US,Refused
107.163.198.56:10000,107.163.198.56,10000,False,,,unknown,美国,,,,美国,resultsUS,local-US,Refused
107.163.198.63:10000,107.163.198.63,10000,False,,,unknown,美国,,,,美国,resultsUS,local-US,Refused
107.163.198.64:10000,107.163.198.64,10000,False,,,unknown,美国,,,,美国,resultsUS,local-US,Refused
107.163.198.65:10000,107.163.198.65,10000,False,,,unknown,美国,,,,美国,resultsUS,local-US,Refused
107.163.198.66:10000,107.163.198.66,10000,False,,,unknown,美国,,,,美国,resultsUS,local-US,Refused
107.163.198.68:10000,107.163.198.68,10000,False,,,unknown,美国,,,,美国,resultsUS,local-US,Refused
107.163.198.70:10000,107.163.198.70,10000,False,,,unknown,美国,,,,美国,resultsUS,local-US,Refused
107.163.198.71:10000,107.163.198.71,10000,False,,,unknown,美国,,,,美国,resultsUS,local-US,Refused
107.163.198.76:10000,107.163.198.76,10000,False,,,unknown,美国,,,,美国,resultsUS,local-US,Refused
107.163.198.80:10000,107.163.198.80,10000,False,,,unknown,美国,,,,美国,resultsUS,local-US,Refused
107.163.198.81:10000,107.163.198.81,10000,False,,,unknown,美国,,,,美国,resultsUS,local-US,Refused
107.163.198.84:10000,107.163.198.84,10000,False,,,unknown,美国,,,,美国,resultsUS,local-US,Refused
107.163.198.86:10000,107.163.198.86,10000,False,,,unknown,美国,,,,美国,resultsUS,local-US,Refused
107.163.198.87:10000,107.163.198.87,10000,False,,,unknown,美国,,,,美国,resultsUS,local-US,Refused
107.163.198.89:10000,107.163.198.89,10000,False,,,unknown,美国,,,,美国,resultsUS,local-US,Refused
107.163.198.90:10000,107.163.198.90,10000,False,,,unknown,美国,,,,美国,resultsUS,local-US,Refused
107.163.198.91:10000,107.163.198.91,10000,False,,,unknown,美国,,,,美国,resultsUS,local-US,Refused
107.163.198.92:10000,107.163.198.92,10000,False,,,unknown,美国,,,,美国,resultsUS,local-US,Refused
107.163.198.93:10000,107.163.198.93,10000,False,,,unknown,美国,,,,美国,resultsUS,local-US,Refused
107.163.198.94:10000,107.163.198.94,10000,False,,,unknown,美国,,,,美国,resultsUS,local-US,Refused
107.163.198.95:10000,107.163.198.95,10000,False,,,unknown,美国,,,,美国,resultsUS,local-US,Refused
107.163.198.97:10000,107.163.198.97,10000,False,,,unknown,美国,,,,美国,resultsUS,local-US,Refused
107.163.198.98:10000,107.163.198.98,10000,False,,,unknown,美国,,,,美国,resultsUS,local-US,Refused
107.163.198.99:10000,107.163.198.99,10000,False,,,unknown,美国,,,,美国,resultsUS,local-US,Refused
107.163.198.103:10000,107.163.198.103,10000,False,,,unknown,美国,,,,美国,resultsUS,local-US,Refused
107.163.198.104:10000,107.163.198.104,10000,False,,,unknown,美国,,,,美国,resultsUS,local-US,Refused
107.163.198.106:10000,107.163.198.106,10000,False,,,unknown,美国,,,,美国,resultsUS,local-US,Refused
107.163.198.107:10000,107.163.198.107,10000,False,,,unknown,美国,,,,美国,resultsUS,local-US,Refused
107.163.198.109:10000,107.163.198.109,10000,False,,,unknown,美国,,,,美国,resultsUS,local-US,Refused
107.163.198.110:10000,107.163.198.110,10000,False,,,unknown,美国,,,,美国,resultsUS,local-US,Refused
107.163.198.116:10000,107.163.198.116,10000,False,,,unknown,美国,,,,美国,resultsUS,local-US,Refused
107.163.198.117:10000,107.163.198.117,10000,False,,,unknown,美国,,,,美国,resultsUS,local-US,Refused
107.163.198.118:10000,107.163.198.118,10000,False,,,unknown,美国,,,,美国,resultsUS,local-US,Refused
107.163.198.120:10000,107.163.198.120,10000,False,,,unknown,美国,,,,美国,resultsUS,local-US,Refused
107.163.198.122:10000,107.163.198.122,10000,False,,,unknown,美国,,,,美国,resultsUS,local-US,Refused
107.163.198.124:10000,107.163.198.124,10000,False,,,unknown,美国,,,,美国,resultsUS,local-US,Refused
107.163.198.126:10000,107.163.198.126,10000,False,,,unknown,美国,,,,美国,resultsUS,local-US,Refused
107.163.198.127:10000,107.163.198.127,10000,False,,,unknown,美国,,,,美国,resultsUS,local-US,Refused
107.163.198.128:10000,107.163.198.128,10000,False,,,unknown,美国,,,,美国,resultsUS,local-US,Refused
107.163.198.133:10000,107.163.198.133,10000,False,,,unknown,美国,,,,美国,resultsUS,local-US,Refused
107.163.198.134:10000,107.163.198.134,10000,False,,,unknown,美国,,,,美国,resultsUS,local-US,Refused
107.163.198.135:10000,107.163.198.135,10000,False,,,unknown,美国,,,,美国,resultsUS,local-US,Refused
107.163.198.137:10000,107.163.198.137,10000,False,,,unknown,美国,,,,美国,resultsUS,local-US,Refused
107.163.198.138:10000,107.163.198.138,10000,False,,,unknown,美国,,,,美国,resultsUS,local-US,Refused
107.163.198.139:10000,107.163.198.139,10000,False,,,unknown,美国,,,,美国,resultsUS,local-US,Refused
107.163.198.146:10000,107.163.198.146,10000,False,,,unknown,美国,,,,美国,resultsUS,local-US,Refused
107.163.198.147:10000,107.163.198.147,10000,False,,,unknown,美国,,,,美国,resultsUS,local-US,Refused
107.163.198.149:10000,107.163.198.149,10000,False,,,unknown,美国,,,,美国,resultsUS,local-US,Refused
107.163.198.151:10000,107.163.198.151,10000,False,,,unknown,美国,,,,美国,resultsUS,local-US,Refused
107.163.198.152:10000,107.163.198.152,10000,False,,,unknown,美国,,,,美国,resultsUS,local-US,Refused
107.163.198.229:10000,107.163.198.229,10000,False,,,unknown,美国,,,,美国,resultsUS,local-US,Refused
107.163.198.231:10000,107.163.198.231,10000,False,,,unknown,美国,,,,美国,resultsUS,local-US,Refused
107.163.198.233:10000,107.163.198.233,10000,False,,,unknown,美国,,,,美国,resultsUS,local-US,Refused
107.163.198.234:10000,107.163.198.234,10000,False,,,unknown,美国,,,,美国,resultsUS,local-US,Refused
107.163.198.236:10000,107.163.198.236,10000,False,,,unknown,美国,,,,美国,resultsUS,local-US,Refused
107.163.198.238:10000,107.163.198.238,10000,False,,,unknown,美国,,,,美国,resultsUS,local-US,Refused
107.163.198.239:10000,107.163.198.239,10000,False,,,unknown,美国,,,,美国,resultsUS,local-US,Refused
107.163.198.242:10000,107.163.198.242,10000,False,,,unknown,美国,,,,美国,resultsUS,local-US,Refused
107.163.198.243:10000,107.163.198.243,10000,False,,,unknown,美国,,,,美国,resultsUS,local-US,Refused
107.163.198.244:10000,107.163.198.244,10000,False,,,unknown,美国,,,,美国,resultsUS,local-US,Refused
107.163.198.246:10000,107.163.198.246,10000,False,,,unknown,美国,,,,美国,resultsUS,local-US,Refused
107.163.198.248:10000,107.163.198.248,10000,False,,,unknown,美国,,,,美国,resultsUS,local-US,Refused
107.163.198.249:10000,107.163.198.249,10000,False,,,unknown,美国,,,,美国,resultsUS,local-US,Refused
107.163.198.250:10000,107.163.198.250,10000,False,,,unknown,美国,,,,美国,resultsUS,local-US,Refused
107.163.198.251:10000,107.163.198.251,10000,False,,,unknown,美国,,,,美国,resultsUS,local-US,Refused
107.163.198.253:10000,107.163.198.253,10000,False,,,unknown,美国,,,,美国,resultsUS,local-US,Refused
107.163.198.254:10000,107.163.198.254,10000,False,,,unknown,美国,,,,美国,resultsUS,local-US,Refused
107.163.202.2:10000,107.163.202.2,10000,False,,,unknown,美国,,,,美国,resultsUS,local-US,Timeout
107.163.202.4:10000,107.163.202.4,10000,False,,,unknown,美国,,,,美国,resultsUS,local-US,Timeout
107.163.202.7:10000,107.163.202.7,10000,False,,,unknown,美国,,,,美国,resultsUS,local-US,Timeout
107.163.202.9:10000,107.163.202.9,10000,False,,,unknown,美国,,,,美国,resultsUS,local-US,Timeout
107.163.202.10:10000,107.163.202.10,10000,False,,,unknown,美国,,,,美国,resultsUS,local-US,Timeout
107.163.202.13:10000,107.163.202.13,10000,False,,,unknown,美国,,,,美国,resultsUS,local-US,Timeout
107.163.202.14:10000,107.163.202.14,10000,False,,,unknown,美国,,,,美国,resultsUS,local-US,Timeout
107.163.202.15:10000,107.163.202.15,10000,False,,,unknown,美国,,,,美国,resultsUS,local-US,Timeout
107.163.202.17:10000,107.163.202.17,10000,False,,,unknown,美国,,,,美国,resultsUS,local-US,Timeout
107.163.202.23:10000,107.163.202.23,10000,False,,,unknown,美国,,,,美国,resultsUS,local-US,Timeout
107.163.202.26:10000,107.163.202.26,10000,False,,,unknown,美国,,,,美国,resultsUS,local-US,Timeout
107.163.202.27:10000,107.163.202.27,10000,False,,,unknown,美国,,,,美国,resultsUS,local-US,Timeout
107.163.202.28:10000,107.163.202.28,10000,False,,,unknown,美国,,,,美国,resultsUS,local-US,Timeout
107.163.202.29:10000,107.163.202.29,10000,False,,,unknown,美国,,,,美国,resultsUS,local-US,Timeout
107.163.202.31:10000,107.163.202.31,10000,False,,,unknown,美国,,,,美国,resultsUS,local-US,Timeout
107.163.202.34:10000,107.163.202.34,10000,False,,,unknown,美国,,,,美国,resultsUS,local-US,Timeout
107.163.202.35:10000,107.163.202.35,10000,False,,,unknown,美国,,,,美国,resultsUS,local-US,Timeout
107.163.202.36:10000,107.163.202.36,10000,False,,,unknown,美国,,,,美国,resultsUS,local-US,Timeout
107.163.202.37:10000,107.163.202.37,10000,False,,,unknown,美国,,,,美国,resultsUS,local-US,Timeout
107.163.202.45:10000,107.163.202.45,10000,False,,,unknown,美国,,,,美国,resultsUS,local-US,Timeout
107.163.202.47:10000,107.163.202.47,10000,False,,,unknown,美国,,,,美国,resultsUS,local-US,Timeout
107.163.202.50:10000,107.163.202.50,10000,False,,,unknown,美国,,,,美国,resultsUS,local-US,Timeout
107.163.202.51:10000,107.163.202.51,10000,False,,,unknown,美国,,,,美国,resultsUS,local-US,Timeout
107.163.202.52:10000,107.163.202.52,10000,False,,,unknown,美国,,,,美国,resultsUS,local-US,Timeout
107.163.202.53:10000,107.163.202.53,10000,False,,,unknown,美国,,,,美国,resultsUS,local-US,Timeout
107.163.202.54:10000,107.163.202.54,10000,False,,,unknown,美国,,,,美国,resultsUS,local-US,Timeout
107.163.202.55:10000,107.163.202.55,10000,False,,,unknown,美国,,,,美国,resultsUS,local-US,Timeout
107.163.202.56:10000,107.163.202.56,10000,False,,,unknown,美国,,,,美国,resultsUS,local-US,Timeout
107.163.202.58:10000,107.163.202.58,10000,False,,,unknown,美国,,,,美国,resultsUS,local-US,Timeout
107.163.202.59:10000,107.163.202.59,10000,False,,,unknown,美国,,,,美国,resultsUS,local-US,Timeout
107.163.202.61:10000,107.163.202.61,10000,False,,,unknown,美国,,,,美国,resultsUS,local-US,Timeout
107.163.202.62:10000,107.163.202.62,10000,False,,,unknown,美国,,,,美国,resultsUS,local-US,Timeout
107.163.202.64:10000,107.163.202.64,10000,False,,,unknown,美国,,,,美国,resultsUS,local-US,Timeout
107.163.202.67:10000,107.163.202.67,10000,False,,,unknown,美国,,,,美国,resultsUS,local-US,Timeout
107.163.202.68:10000,107.163.202.68,10000,False,,,unknown,美国,,,,美国,resultsUS,local-US,Timeout
107.163.202.71:10000,107.163.202.71,10000,False,,,unknown,美国,,,,美国,resultsUS,local-US,Timeout
107.163.202.72:10000,107.163.202.72,10000,False,,,unknown,美国,,,,美国,resultsUS,local-US,Timeout
107.163.202.74:10000,107.163.202.74,10000,False,,,unknown,美国,,,,美国,resultsUS,local-US,Timeout
107.163.202.75:10000,107.163.202.75,10000,False,,,unknown,美国,,,,美国,resultsUS,local-US,Timeout
107.163.202.77:10000,107.163.202.77,10000,False,,,unknown,美国,,,,美国,resultsUS,local-US,Timeout
107.163.202.78:10000,107.163.202.78,10000,False,,,unknown,美国,,,,美国,resultsUS,local-US,Timeout
107.163.202.82:10000,107.163.202.82,10000,False,,,unknown,美国,,,,美国,resultsUS,local-US,Timeout
107.163.202.85:10000,107.163.202.85,10000,False,,,unknown,美国,,,,美国,resultsUS,local-US,Timeout
107.163.202.87:10000,107.163.202.87,10000,False,,,unknown,美国,,,,美国,resultsUS,local-US,Timeout
107.163.202.88:10000,107.163.202.88,10000,False,,,unknown,美国,,,,美国,resultsUS,local-US,Timeout
107.163.202.89:10000,107.163.202.89,10000,False,,,unknown,美国,,,,美国,resultsUS,local-US,Timeout
107.163.202.91:10000,107.163.202.91,10000,False,,,unknown,美国,,,,美国,resultsUS,local-US,Timeout
107.163.202.96:10000,107.163.202.96,10000,False,,,unknown,美国,,,,美国,resultsUS,local-US,Timeout
107.163.202.98:10000,107.163.202.98,10000,False,,,unknown,美国,,,,美国,resultsUS,local-US,Timeout
107.163.202.101:10000,107.163.202.101,10000,False,,,unknown,美国,,,,美国,resultsUS,local-US,Timeout
107.163.202.102:10000,107.163.202.102,10000,False,,,unknown,美国,,,,美国,resultsUS,local-US,Timeout
107.163.202.104:10000,107.163.202.104,10000,False,,,unknown,美国,,,,美国,resultsUS,local-US,Timeout
107.163.202.106:10000,107.163.202.106,10000,False,,,unknown,美国,,,,美国,resultsUS,local-US,Timeout
107.163.202.107:10000,107.163.202.107,10000,False,,,unknown,美国,,,,美国,resultsUS,local-US,Timeout
107.163.202.108:10000,107.163.202.108,10000,False,,,unknown,美国,,,,美国,resultsUS,local-US,Timeout
107.163.202.109:10000,107.163.202.109,10000,False,,,unknown,美国,,,,美国,resultsUS,local-US,Timeout
107.163.202.112:10000,107.163.202.112,10000,False,,,unknown,美国,,,,美国,resultsUS,local-US,Timeout
107.163.202.118:10000,107.163.202.118,10000,False,,,unknown,美国,,,,美国,resultsUS,local-US,Timeout
107.163.202.120:10000,107.163.202.120,10000,False,,,unknown,美国,,,,美国,resultsUS,local-US,Timeout
107.163.202.121:10000,107.163.202.121,10000,False,,,unknown,美国,,,,美国,resultsUS,local-US,Timeout
107.163.202.122:10000,107.163.202.122,10000,False,,,unknown,美国,,,,美国,resultsUS,local-US,Timeout
107.163.202.123:10000,107.163.202.123,10000,False,,,unknown,美国,,,,美国,resultsUS,local-US,Timeout
107.163.202.125:10000,107.163.202.125,10000,False,,,unknown,美国,,,,美国,resultsUS,local-US,Timeout
107.163.202.126:10000,107.163.202.126,10000,False,,,unknown,美国,,,,美国,resultsUS,local-US,Timeout
107.163.202.130:10000,107.163.202.130,10000,False,,,unknown,美国,,,,美国,resultsUS,local-US,Timeout
107.163.202.131:10000,107.163.202.131,10000,False,,,unknown,美国,,,,美国,resultsUS,local-US,Timeout
107.163.202.133:10000,107.163.202.133,10000,False,,,unknown,美国,,,,美国,resultsUS,local-US,Timeout
107.163.202.135:10000,107.163.202.135,10000,False,,,unknown,美国,,,,美国,resultsUS,local-US,Timeout
107.163.202.139:10000,107.163.202.139,10000,False,,,unknown,美国,,,,美国,resultsUS,local-US,Timeout
107.163.202.140:10000,107.163.202.140,10000,False,,,unknown,美国,,,,美国,resultsUS,local-US,Timeout
107.163.202.142:10000,107.163.202.142,10000,False,,,unknown,美国,,,,美国,resultsUS,local-US,Timeout
107.163.202.143:10000,107.163.202.143,10000,False,,,unknown,美国,,,,美国,resultsUS,local-US,Timeout
107.163.202.144:10000,107.163.202.144,10000,False,,,unknown,美国,,,,美国,resultsUS,local-US,Timeout
107.163.202.146:10000,107.163.202.146,10000,False,,,unknown,美国,,,,美国,resultsUS,local-US,Timeout
107.163.202.149:10000,107.163.202.149,10000,False,,,unknown,美国,,,,美国,resultsUS,local-US,Timeout
107.163.202.150:10000,107.163.202.150,10000,False,,,unknown,美国,,,,美国,resultsUS,local-US,Timeout
107.163.202.151:10000,107.163.202.151,10000,False,,,unknown,美国,,,,美国,resultsUS,local-US,Timeout
107.163.202.152:10000,107.163.202.152,10000,False,,,unknown,美国,,,,美国,resultsUS,local-US,Timeout
107.163.202.155:10000,107.163.202.155,10000,False,,,unknown,美国,,,,美国,resultsUS,local-US,Timeout
107.163.202.157:10000,107.163.202.157,10000,False,,,unknown,美国,,,,美国,resultsUS,local-US,Timeout
107.163.202.158:10000,107.163.202.158,10000,False,,,unknown,美国,,,,美国,resultsUS,local-US,Timeout
107.163.202.162:10000,107.163.202.162,10000,False,,,unknown,美国,,,,美国,resultsUS,local-US,Timeout
107.163.202.163:10000,107.163.202.163,10000,False,,,unknown,美国,,,,美国,resultsUS,local-US,Timeout
107.163.202.164:10000,107.163.202.164,10000,False,,,unknown,美国,,,,美国,resultsUS,local-US,Timeout
107.163.202.165:10000,107.163.202.165,10000,False,,,unknown,美国,,,,美国,resultsUS,local-US,Timeout
107.163.202.168:10000,107.163.202.168,10000,False,,,unknown,美国,,,,美国,resultsUS,local-US,Timeout
107.163.202.169:10000,107.163.202.169,10000,False,,,unknown,美国,,,,美国,resultsUS,local-US,Timeout
107.163.202.170:10000,107.163.202.170,10000,False,,,unknown,美国,,,,美国,resultsUS,local-US,Timeout
107.163.202.171:10000,107.163.202.171,10000,False,,,unknown,美国,,,,美国,resultsUS,local-US,Timeout
107.163.202.172:10000,107.163.202.172,10000,False,,,unknown,美国,,,,美国,resultsUS,local-US,Timeout
107.163.202.173:10000,107.163.202.173,10000,False,,,unknown,美国,,,,美国,resultsUS,local-US,Timeout
107.163.202.176:10000,107.163.202.176,10000,False,,,unknown,美国,,,,美国,resultsUS,local-US,Timeout
107.163.202.179:10000,107.163.202.179,10000,False,,,unknown,美国,,,,美国,resultsUS,local-US,Timeout
107.163.202.180:10000,107.163.202.180,10000,False,,,unknown,美国,,,,美国,resultsUS,local-US,Timeout
107.163.202.184:10000,107.163.202.184,10000,False,,,unknown,美国,,,,美国,resultsUS,local-US,Timeout
107.163.202.188:10000,107.163.202.188,10000,False,,,unknown,美国,,,,美国,resultsUS,local-US,Timeout
107.163.202.189:10000,107.163.202.189,10000,False,,,unknown,美国,,,,美国,resultsUS,local-US,Timeout
107.163.202.190:10000,107.163.202.190,10000,False,,,unknown,美国,,,,美国,resultsUS,local-US,Timeout
107.163.202.196:10000,107.163.202.196,10000,False,,,unknown,美国,,,,美国,resultsUS,local-US,Timeout
107.163.202.198:10000,107.163.202.198,10000,False,,,unknown,美国,,,,美国,resultsUS,local-US,Timeout
107.163.202.202:10000,107.163.202.202,10000,False,,,unknown,美国,,,,美国,resultsUS,local-US,Timeout
107.163.202.205:10000,107.163.202.205,10000,False,,,unknown,美国,,,,美国,resultsUS,local-US,Timeout
107.163.202.207:10000,107.163.202.207,10000,False,,,unknown,美国,,,,美国,resultsUS,local-US,Timeout
107.163.202.211:10000,107.163.202.211,10000,False,,,unknown,美国,,,,美国,resultsUS,local-US,Timeout
107.163.202.212:10000,107.163.202.212,10000,False,,,unknown,美国,,,,美国,resultsUS,local-US,Timeout
107.163.202.215:10000,107.163.202.215,10000,False,,,unknown,美国,,,,美国,resultsUS,local-US,Timeout
107.163.202.216:10000,107.163.202.216,10000,False,,,unknown,美国,,,,美国,resultsUS,local-US,Timeout
107.163.202.219:10000,107.163.202.219,10000,False,,,unknown,美国,,,,美国,resultsUS,local-US,Timeout
107.163.202.221:10000,107.163.202.221,10000,False,,,unknown,美国,,,,美国,resultsUS,local-US,Timeout
107.163.202.222:10000,107.163.202.222,10000,False,,,unknown,美国,,,,美国,resultsUS,local-US,Timeout
107.163.202.224:10000,107.163.202.224,10000,False,,,unknown,美国,,,,美国,resultsUS,local-US,Timeout
107.163.202.226:10000,107.163.202.226,10000,False,,,unknown,美国,,,,美国,resultsUS,local-US,Timeout
107.163.202.227:10000,107.163.202.227,10000,False,,,unknown,美国,,,,美国,resultsUS,local-US,Timeout
107.163.202.228:10000,107.163.202.228,10000,False,,,unknown,美国,,,,美国,resultsUS,local-US,Timeout
107.163.202.229:10000,107.163.202.229,10000,False,,,unknown,美国,,,,美国,resultsUS,local-US,Timeout
107.163.202.230:10000,107.163.202.230,10000,False,,,unknown,美国,,,,美国,resultsUS,local-US,Timeout
107.163.202.231:10000,107.163.202.231,10000,False,,,unknown,美国,,,,美国,resultsUS,local-US,Timeout
107.163.202.232:10000,107.163.202.232,10000,False,,,unknown,美国,,,,美国,resultsUS,local-US,Timeout
107.163.202.233:10000,107.163.202.233,10000,False,,,unknown,美国,,,,美国,resultsUS,local-US,Timeout
107.163.202.234:10000,107.163.202.234,10000,False,,,unknown,美国,,,,美国,resultsUS,local-US,Timeout
107.163.202.235:10000,107.163.202.235,10000,False,,,unknown,美国,,,,美国,resultsUS,local-US,Timeout
107.163.202.237:10000,107.163.202.237,10000,False,,,unknown,美国,,,,美国,resultsUS,local-US,Timeout
107.163.202.238:10000,107.163.202.238,10000,False,,,unknown,美国,,,,美国,resultsUS,local-US,Timeout
107.163.202.243:10000,107.163.202.243,10000,False,,,unknown,美国,,,,美国,resultsUS,local-US,Timeout
107.163.202.244:10000,107.163.202.244,10000,False,,,unknown,美国,,,,美国,resultsUS,local-US,Timeout
107.163.202.245:10000,107.163.202.245,10000,False,,,unknown,美国,,,,美国,resultsUS,local-US,Timeout
107.163.202.246:10000,107.163.202.246,10000,False,,,unknown,美国,,,,美国,resultsUS,local-US,Timeout
107.163.202.249:10000,107.163.202.249,10000,False,,,unknown,美国,,,,美国,resultsUS,local-US,Timeout
107.163.202.251:10000,107.163.202.251,10000,False,,,unknown,美国,,,,美国,resultsUS,local-US,Timeout
107.163.202.253:10000,107.163.202.253,10000,False,,,unknown,美国,,,,美国,resultsUS,local-US,Timeout
107.163.228.3:10000,107.163.228.3,10000,False,,,unknown,美国,,,,美国,resultsUS,local-US,Refused
107.163.228.4:10000,107.163.228.4,10000,False,,,unknown,美国,,,,美国,resultsUS,local-US,Refused
107.163.228.9:10000,107.163.228.9,10000,False,,,unknown,美国,,,,美国,resultsUS,local-US,Refused
107.163.228.10:10000,107.163.228.10,10000,False,,,unknown,美国,,,,美国,resultsUS,local-US,Refused
107.163.228.12:10000,107.163.228.12,10000,False,,,unknown,美国,,,,美国,resultsUS,local-US,Refused
107.163.228.13:10000,107.163.228.13,10000,False,,,unknown,美国,,,,美国,resultsUS,local-US,Refused
107.163.228.16:10000,107.163.228.16,10000,False,,,unknown,美国,,,,美国,resultsUS,local-US,Refused
107.163.228.17:10000,107.163.228.17,10000,False,,,unknown,美国,,,,美国,resultsUS,local-US,Refused
107.163.228.19:10000,107.163.228.19,10000,False,,,unknown,美国,,,,美国,resultsUS,local-US,Refused
107.163.228.20:10000,107.163.228.20,10000,False,,,unknown,美国,,,,美国,resultsUS,local-US,Refused
107.163.228.21:10000,107.163.228.21,10000,False,,,unknown,美国,,,,美国,resultsUS,local-US,Refused
107.163.228.23:10000,107.163.228.23,10000,False,,,unknown,美国,,,,美国,resultsUS,local-US,Refused
107.163.228.25:10000,107.163.228.25,10000,False,,,unknown,美国,,,,美国,resultsUS,local-US,Refused
107.163.228.26:10000,107.163.228.26,10000,False,,,unknown,美国,,,,美国,resultsUS,local-US,Refused
107.163.228.27:10000,107.163.228.27,10000,False,,,unknown,美国,,,,美国,resultsUS,local-US,Refused
107.163.228.28:10000,107.163.228.28,10000,False,,,unknown,美国,,,,美国,resultsUS,local-US,Refused
107.163.228.29:10000,107.163.228.29,10000,False,,,unknown,美国,,,,美国,resultsUS,local-US,Refused
107.163.228.30:10000,107.163.228.30,10000,False,,,unknown,美国,,,,美国,resultsUS,local-US,Refused
107.163.228.32:10000,107.163.228.32,10000,False,,,unknown,美国,,,,美国,resultsUS,local-US,Refused
107.163.228.35:10000,107.163.228.35,10000,False,,,unknown,美国,,,,美国,resultsUS,local-US,Refused
107.163.228.36:10000,107.163.228.36,10000,False,,,unknown,美国,,,,美国,resultsUS,local-US,Refused
107.163.228.37:10000,107.163.228.37,10000,False,,,unknown,美国,,,,美国,resultsUS,local-US,Refused
107.163.228.39:10000,107.163.228.39,10000,False,,,unknown,美国,,,,美国,resultsUS,local-US,Refused
107.163.228.42:10000,107.163.228.42,10000,False,,,unknown,美国,,,,美国,resultsUS,local-US,Refused
107.163.228.43:10000,107.163.228.43,10000,False,,,unknown,美国,,,,美国,resultsUS,local-US,Refused
107.163.228.45:10000,107.163.228.45,10000,False,,,unknown,美国,,,,美国,resultsUS,local-US,Refused
107.163.228.47:10000,107.163.228.47,10000,False,,,unknown,美国,,,,美国,resultsUS,local-US,Refused
107.163.228.48:10000,107.163.228.48,10000,False,,,unknown,美国,,,,美国,resultsUS,local-US,Refused
107.163.228.52:10000,107.163.228.52,10000,False,,,unknown,美国,,,,美国,resultsUS,local-US,Refused
107.163.228.54:10000,107.163.228.54,10000,False,,,unknown,美国,,,,美国,resultsUS,local-US,Refused
107.163.228.58:10000,107.163.228.58,10000,False,,,unknown,美国,,,,美国,resultsUS,local-US,Refused
107.163.228.60:10000,107.163.228.60,10000,False,,,unknown,美国,,,,美国,resultsUS,local-US,Refused
107.163.228.63:10000,107.163.228.63,10000,False,,,unknown,美国,,,,美国,resultsUS,local-US,Refused
107.163.228.66:10000,107.163.228.66,10000,False,,,unknown,美国,,,,美国,resultsUS,local-US,Refused
107.163.228.68:10000,107.163.228.68,10000,False,,,unknown,美国,,,,美国,resultsUS,local-US,Refused
107.163.228.71:10000,107.163.228.71,10000,False,,,unknown,美国,,,,美国,resultsUS,local-US,Refused
107.163.228.72:10000,107.163.228.72,10000,False,,,unknown,美国,,,,美国,resultsUS,local-US,Refused
107.163.228.73:10000,107.163.228.73,10000,False,,,unknown,美国,,,,美国,resultsUS,local-US,Refused
107.163.228.74:10000,107.163.228.74,10000,False,,,unknown,美国,,,,美国,resultsUS,local-US,Refused
107.163.228.75:10000,107.163.228.75,10000,False,,,unknown,美国,,,,美国,resultsUS,local-US,Refused
107.163.228.76:10000,107.163.228.76,10000,False,,,unknown,美国,,,,美国,resultsUS,local-US,Refused
107.163.228.79:10000,107.163.228.79,10000,False,,,unknown,美国,,,,美国,resultsUS,local-US,Refused
107.163.228.80:10000,107.163.228.80,10000,False,,,unknown,美国,,,,美国,resultsUS,local-US,Refused
107.163.228.81:10000,107.163.228.81,10000,False,,,unknown,美国,,,,美国,resultsUS,local-US,Refused
107.163.228.82:10000,107.163.228.82,10000,False,,,unknown,美国,,,,美国,resultsUS,local-US,Refused
107.163.228.84:10000,107.163.228.84,10000,False,,,unknown,美国,,,,美国,resultsUS,local-US,Refused
107.163.228.86:10000,107.163.228.86,10000,False,,,unknown,美国,,,,美国,resultsUS,local-US,Refused
107.163.228.87:10000,107.163.228.87,10000,False,,,unknown,美国,,,,美国,resultsUS,local-US,Refused
107.163.228.89:10000,107.163.228.89,10000,False,,,unknown,美国,,,,美国,resultsUS,local-US,Refused
107.163.228.95:10000,107.163.228.95,10000,False,,,unknown,美国,,,,美国,resultsUS,local-US,Refused
107.163.228.99:10000,107.163.228.99,10000,False,,,unknown,美国,,,,美国,resultsUS,local-US,Refused
107.163.228.103:10000,107.163.228.103,10000,False,,,unknown,美国,,,,美国,resultsUS,local-US,Refused
107.163.228.106:10000,107.163.228.106,10000,False,,,unknown,美国,,,,美国,resultsUS,local-US,Refused
107.163.228.107:10000,107.163.228.107,10000,False,,,unknown,美国,,,,美国,resultsUS,local-US,Refused
107.163.228.108:10000,107.163.228.108,10000,False,,,unknown,美国,,,,美国,resultsUS,local-US,Refused
107.163.228.109:10000,107.163.228.109,10000,False,,,unknown,美国,,,,美国,resultsUS,local-US,Refused
107.163.228.113:10000,107.163.228.113,10000,False,,,unknown,美国,,,,美国,resultsUS,local-US,Refused
107.163.228.114:10000,107.163.228.114,10000,False,,,unknown,美国,,,,美国,resultsUS,local-US,Refused
107.163.228.115:10000,107.163.228.115,10000,False,,,unknown,美国,,,,美国,resultsUS,local-US,Refused
107.163.228.116:10000,107.163.228.116,10000,False,,,unknown,美国,,,,美国,resultsUS,local-US,Refused
107.163.228.117:10000,107.163.228.117,10000,False,,,unknown,美国,,,,美国,resultsUS,local-US,Refused
107.163.228.118:10000,107.163.228.118,10000,False,,,unknown,美国,,,,美国,resultsUS,local-US,Refused
107.163.228.119:10000,107.163.228.119,10000,False,,,unknown,美国,,,,美国,resultsUS,local-US,Refused
107.163.228.121:10000,107.163.228.121,10000,False,,,unknown,美国,,,,美国,resultsUS,local-US,Refused
107.163.228.123:10000,107.163.228.123,10000,False,,,unknown,美国,,,,美国,resultsUS,local-US,Refused
107.163.228.125:10000,107.163.228.125,10000,False,,,unknown,美国,,,,美国,resultsUS,local-US,Refused
107.163.228.126:10000,107.163.228.126,10000,False,,,unknown,美国,,,,美国,resultsUS,local-US,Refused
107.163.228.130:10000,107.163.228.130,10000,False,,,unknown,美国,,,,美国,resultsUS,local-US,Refused
107.163.228.131:10000,107.163.228.131,10000,False,,,unknown,美国,,,,美国,resultsUS,local-US,Refused
107.163.228.132:10000,107.163.228.132,10000,False,,,unknown,美国,,,,美国,resultsUS,local-US,Refused
107.163.228.133:10000,107.163.228.133,10000,False,,,unknown,美国,,,,美国,resultsUS,local-US,Refused
107.163.228.134:10000,107.163.228.134,10000,False,,,unknown,美国,,,,美国,resultsUS,local-US,Refused
107.163.228.140:10000,107.163.228.140,10000,False,,,unknown,美国,,,,美国,resultsUS,local-US,Refused
107.163.228.142:10000,107.163.228.142,10000,False,,,unknown,美国,,,,美国,resultsUS,local-US,Refused
107.163.228.144:10000,107.163.228.144,10000,False,,,unknown,美国,,,,美国,resultsUS,local-US,Refused
107.163.228.145:10000,107.163.228.145,10000,False,,,unknown,美国,,,,美国,resultsUS,local-US,Refused
107.163.228.146:10000,107.163.228.146,10000,False,,,unknown,美国,,,,美国,resultsUS,local-US,Refused
107.163.228.147:10000,107.163.228.147,10000,False,,,unknown,美国,,,,美国,resultsUS,local-US,Refused
107.163.228.148:10000,107.163.228.148,10000,False,,,unknown,美国,,,,美国,resultsUS,local-US,Refused
107.163.228.149:10000,107.163.228.149,10000,False,,,unknown,美国,,,,美国,resultsUS,local-US,Refused
107.163.228.150:10000,107.163.228.150,10000,False,,,unknown,美国,,,,美国,resultsUS,local-US,Refused
107.163.228.151:10000,107.163.228.151,10000,False,,,unknown,美国,,,,美国,resultsUS,local-US,Refused
107.163.228.153:10000,107.163.228.153,10000,False,,,unknown,美国,,,,美国,resultsUS,local-US,Refused
107.163.228.155:10000,107.163.228.155,10000,False,,,unknown,美国,,,,美国,resultsUS,local-US,Refused
107.163.228.156:10000,107.163.228.156,10000,False,,,unknown,美国,,,,美国,resultsUS,local-US,Refused
107.163.228.157:10000,107.163.228.157,10000,False,,,unknown,美国,,,,美国,resultsUS,local-US,Refused
107.163.228.159:10000,107.163.228.159,10000,False,,,unknown,美国,,,,美国,resultsUS,local-US,Refused
107.163.228.161:10000,107.163.228.161,10000,False,,,unknown,美国,,,,美国,resultsUS,local-US,Refused
107.163.228.163:10000,107.163.228.163,10000,False,,,unknown,美国,,,,美国,resultsUS,local-US,Refused
107.163.228.165:10000,107.163.228.165,10000,False,,,unknown,美国,,,,美国,resultsUS,local-US,Refused
107.163.228.170:10000,107.163.228.170,10000,False,,,unknown,美国,,,,美国,resultsUS,local-US,Refused
107.163.228.171:10000,107.163.228.171,10000,False,,,unknown,美国,,,,美国,resultsUS,local-US,Refused
107.163.228.172:10000,107.163.228.172,10000,False,,,unknown,美国,,,,美国,resultsUS,local-US,Refused
107.163.228.174:10000,107.163.228.174,10000,False,,,unknown,美国,,,,美国,resultsUS,local-US,Refused
107.163.228.175:10000,107.163.228.175,10000,False,,,unknown,美国,,,,美国,resultsUS,local-US,Refused
107.163.228.177:10000,107.163.228.177,10000,False,,,unknown,美国,,,,美国,resultsUS,local-US,Refused
107.163.228.178:10000,107.163.228.178,10000,False,,,unknown,美国,,,,美国,resultsUS,local-US,Refused
107.163.228.179:10000,107.163.228.179,10000,False,,,unknown,美国,,,,美国,resultsUS,local-US,Refused
107.163.228.181:10000,107.163.228.181,10000,False,,,unknown,美国,,,,美国,resultsUS,local-US,Refused
107.163.228.182:10000,107.163.228.182,10000,False,,,unknown,美国,,,,美国,resultsUS,local-US,Refused
107.163.228.183:10000,107.163.228.183,10000,False,,,unknown,美国,,,,美国,resultsUS,local-US,Refused
107.163.228.185:10000,107.163.228.185,10000,False,,,unknown,美国,,,,美国,resultsUS,local-US,Refused
107.163.228.186:10000,107.163.228.186,10000,False,,,unknown,美国,,,,美国,resultsUS,local-US,Refused
107.163.228.187:10000,107.163.228.187,10000,False,,,unknown,美国,,,,美国,resultsUS,local-US,Refused
107.163.228.189:10000,107.163.228.189,10000,False,,,unknown,美国,,,,美国,resultsUS,local-US,Refused
107.163.228.193:10000,107.163.228.193,10000,False,,,unknown,美国,,,,美国,resultsUS,local-US,Refused
107.163.228.195:10000,107.163.228.195,10000,False,,,unknown,美国,,,,美国,resultsUS,local-US,Refused
107.163.228.197:10000,107.163.228.197,10000,False,,,unknown,美国,,,,美国,resultsUS,local-US,Refused
107.163.228.198:10000,107.163.228.198,10000,False,,,unknown,美国,,,,美国,resultsUS,local-US,Refused
107.163.228.199:10000,107.163.228.199,10000,False,,,unknown,美国,,,,美国,resultsUS,local-US,Refused
107.163.228.200:10000,107.163.228.200,10000,False,,,unknown,美国,,,,美国,resultsUS,local-US,Refused
107.163.228.202:10000,107.163.228.202,10000,False,,,unknown,美国,,,,美国,resultsUS,local-US,Refused
107.163.228.203:10000,107.163.228.203,10000,False,,,unknown,美国,,,,美国,resultsUS,local-US,Refused
107.163.228.204:10000,107.163.228.204,10000,False,,,unknown,美国,,,,美国,resultsUS,local-US,Refused
107.163.228.205:10000,107.163.228.205,10000,False,,,unknown,美国,,,,美国,resultsUS,local-US,Refused
107.163.228.206:10000,107.163.228.206,10000,False,,,unknown,美国,,,,美国,resultsUS,local-US,Refused
107.163.228.207:10000,107.163.228.207,10000,False,,,unknown,美国,,,,美国,resultsUS,local-US,Refused
107.163.228.210:10000,107.163.228.210,10000,False,,,unknown,美国,,,,美国,resultsUS,local-US,Refused
107.163.228.212:10000,107.163.228.212,10000,False,,,unknown,美国,,,,美国,resultsUS,local-US,Refused
107.163.228.213:10000,107.163.228.213,10000,False,,,unknown,美国,,,,美国,resultsUS,local-US,Refused
107.163.228.214:10000,107.163.228.214,10000,False,,,unknown,美国,,,,美国,resultsUS,local-US,Refused
107.163.228.215:10000,107.163.228.215,10000,False,,,unknown,美国,,,,美国,resultsUS,local-US,Refused
107.163.228.219:10000,107.163.228.219,10000,False,,,unknown,美国,,,,美国,resultsUS,local-US,Refused
107.163.228.221:10000,107.163.228.221,10000,False,,,unknown,美国,,,,美国,resultsUS,local-US,Refused
107.163.228.222:10000,107.163.228.222,10000,False,,,unknown,美国,,,,美国,resultsUS,local-US,Refused
107.163.228.224:10000,107.163.228.224,10000,False,,,unknown,美国,,,,美国,resultsUS,local-US,Refused
107.163.228.225:10000,107.163.228.225,10000,False,,,unknown,美国,,,,美国,resultsUS,local-US,Refused
107.163.228.230:10000,107.163.228.230,10000,False,,,unknown,美国,,,,美国,resultsUS,local-US,Refused
107.163.228.231:10000,107.163.228.231,10000,False,,,unknown,美国,,,,美国,resultsUS,local-US,Refused
107.163.228.232:10000,107.163.228.232,10000,False,,,unknown,美国,,,,美国,resultsUS,local-US,Refused
107.163.228.234:10000,107.163.228.234,10000,False,,,unknown,美国,,,,美国,resultsUS,local-US,Refused
107.163.228.236:10000,107.163.228.236,10000,False,,,unknown,美国,,,,美国,resultsUS,local-US,Refused
107.163.228.237:10000,107.163.228.237,10000,False,,,unknown,美国,,,,美国,resultsUS,local-US,Refused
107.163.228.240:10000,107.163.228.240,10000,False,,,unknown,美国,,,,美国,resultsUS,local-US,Refused
107.163.228.242:10000,107.163.228.242,10000,False,,,unknown,美国,,,,美国,resultsUS,local-US,Refused
107.163.228.243:10000,107.163.228.243,10000,False,,,unknown,美国,,,,美国,resultsUS,local-US,Refused
107.163.228.244:10000,107.163.228.244,10000,False,,,unknown,美国,,,,美国,resultsUS,local-US,Refused
107.163.228.246:10000,107.163.228.246,10000,False,,,unknown,美国,,,,美国,resultsUS,local-US,Refused
107.163.228.247:10000,107.163.228.247,10000,False,,,unknown,美国,,,,美国,resultsUS,local-US,Refused
107.163.228.248:10000,107.163.228.248,10000,False,,,unknown,美国,,,,美国,resultsUS,local-US,Refused
107.163.228.249:10000,107.163.228.249,10000,False,,,unknown,美国,,,,美国,resultsUS,local-US,Refused
107.163.228.251:10000,107.163.228.251,10000,False,,,unknown,美国,,,,美国,resultsUS,local-US,Refused
107.163.228.253:10000,107.163.228.253,10000,False,,,unknown,美国,,,,美国,resultsUS,local-US,Refused
108.60.228.210:443,108.60.228.210,443,True,69.66,,unknown,通用,,,,通用,results,local-general,
108.162.198.115:443,108.162.198.115,443,True,1.53,,unknown,,,,,,ipTop10.html,cloudflare,
109.70.24.168:443,109.70.24.168,443,True,220.6,,unknown,通用,,,,通用,results,local-general,
109.231.45.250:443,109.231.45.250,443,True,173.71,,unknown,通用,,,,通用,results,local-general,
109.238.110.177:1080,109.238.110.177,1080,True,189.62,家宽,residential,俄罗斯,,普斯科夫州,KVS Ltd. Broadband customer connections (PPPoE),俄罗斯 普斯科夫州,socks5-proxy,socks5,
113.23.216.128:9088,113.23.216.128,9088,False,,,unknown,通用,,,,通用,results,local-general,Timeout
113.23.216.129:9088,113.23.216.129,9088,False,,,unknown,通用,,,,通用,results,local-general,Timeout
113.180.215.39:1080,113.180.215.39,1080,True,191.15,机房,datacenter,越南,胡志明市,胡志明市,Vietnam Posts and Telecommunications Group,越南 胡志明市,socks5-proxy,socks5,
114.217.27.1:1080,114.217.27.1,1080,False,,,unknown,中国,,,,中国,ResultsCN,local-CN,Timeout
115.133.236.116:8009,115.133.236.116,8009,True,181.86,,unknown,通用,,,,通用,results,local-general,
117.80.113.116:1080,117.80.113.116,1080,False,,,unknown,中国,,,,中国,ResultsCN,local-CN,Timeout
117.80.186.65:1080,117.80.186.65,1080,False,,,unknown,中国,,,,中国,ResultsCN,local-CN,Timeout
117.80.231.48:1080,117.80.231.48,1080,False,,,unknown,中国,,,,中国,ResultsCN,local-CN,Timeout
117.83.110.222:1080,117.83.110.222,1080,False,,,unknown,中国,,,,中国,ResultsCN,local-CN,Timeout
118.127.59.126:12443,118.127.59.126,12443,True,154.86,,unknown,通用,,,,通用,results,local-general,
118.163.99.115:443,118.163.99.115,443,True,138.27,,unknown,通用,,,,通用,results,local-general,
119.29.101.90:1080,119.29.101.90,1080,False,,,unknown,韩国,,,,韩国,ResultsAHT,local-AHT,Timeout
119.29.250.177:1080,119.29.250.177,1080,False,,,unknown,韩国,,,,韩国,ResultsAHT,local-AHT,Timeout
120.53.14.23:1080,120.53.14.23,1080,True,215.18,,unknown,中国,,,,中国,ResultsCN,local-CN,
120.77.148.127:1080,120.77.148.127,1080,True,195.45,,unknown,中国,,,,中国,ResultsCN,local-CN,
121.123.182.244:8009,121.123.182.244,8009,True,183.9,,unknown,通用,,,,通用,results,local-general,
121.204.134.210:1080,121.204.134.210,1080,False,,,unknown,中国,,,,中国,ResultsCN,local-CN,Timeout
121.204.135.169:1080,121.204.135.169,1080,False,,,unknown,中国,,,,中国,ResultsCN,local-CN,Timeout
121.204.180.237:1080,121.204.180.237,1080,False,,,unknown,中国,,,,中国,ResultsCN,local-CN,Timeout
121.204.183.31:1080,121.204.183.31,1080,True,226.86,,unknown,中国,,,,中国,ResultsCN,local-CN,
121.204.187.65:1080,121.204.187.65,1080,False,,,unknown,中国,,,,中国,ResultsCN,local-CN,Timeout
121.204.208.101:1080,121.204.208.101,1080,True,1274.78,,unknown,中国,,,,中国,ResultsCN,local-CN,
121.204.212.200:1080,121.204.212.200,1080,False,,,unknown,中国,,,,中国,ResultsCN,local-CN,Timeout
121.229.17.85:1080,121.229.17.85,1080,False,,,unknown,中国,,,,中国,ResultsCN,local-CN,Timeout
121.229.29.134:1080,121.229.29.134,1080,False,,,unknown,中国,,,,中国,ResultsCN,local-CN,Timeout
121.229.45.132:1080,121.229.45.132,1080,False,,,unknown,中国,,,,中国,ResultsCN,local-CN,Timeout
121.229.107.72:8112,121.229.107.72,8112,True,216.24,,unknown,中国,,,,中国,ResultsCN,local-CN,
123.56.142.154:443,123.56.142.154,443,True,204.26,,unknown,通用,,,,通用,results,local-general,
123.231.118.55:443,123.231.118.55,443,False,,,unknown,通用,,,,通用,results,local-general,Timeout
124.156.142.10:5555,124.156.142.10,5555,False,,,unknown,韩国,,,,韩国,ResultsAHT,local-AHT,Refused
124.156.223.252:4433,124.156.223.252,4433,True,106.05,,unknown,通用,,,,通用,results,local-general,
125.21.172.202:443,125.21.172.202,443,False,,,unknown,通用,,,,通用,results,local-general,Timeout
125.124.23.73:1080,125.124.23.73,1080,False,,,unknown,中国,,,,中国,ResultsCN,local-CN,Refused
125.124.54.184:1080,125.124.54.184,1080,False,,,unknown,中国,,,,中国,ResultsCN,local-CN,Refused
125.124.91.61:1080,125.124.91.61,1080,False,,,unknown,中国,,,,中国,ResultsCN,local-CN,Refused
125.124.102.242:1080,125.124.102.242,1080,False,,,unknown,中国,,,,中国,ResultsCN,local-CN,Refused
125.124.122.243:1080,125.124.122.243,1080,False,,,unknown,中国,,,,中国,ResultsCN,local-CN,Refused
125.124.124.109:1080,125.124.124.109,1080,False,,,unknown,中国,,,,中国,ResultsCN,local-CN,Refused
125.124.191.119:1080,125.124.191.119,1080,False,,,unknown,中国,,,,中国,ResultsCN,local-CN,Refused
125.124.230.198:1080,125.124.230.198,1080,False,,,unknown,中国,,,,中国,ResultsCN,local-CN,Refused
125.124.236.15:1080,125.124.236.15,1080,False,,,unknown,中国,,,,中国,ResultsCN,local-CN,Refused
128.84.46.176:443,128.84.46.176,443,True,79.26,,unknown,通用,,,,通用,results,local-general,
128.90.49.81:1080,128.90.49.81,1080,False,,机房,datacenter,新加坡,新加坡,新加坡,"Unus, Inc.",新加坡 新加坡,socks5-proxy,socks5,Timeout
128.90.192.178:1080,128.90.192.178,1080,False,,机房,datacenter,菲律宾,国家首都区,奎松城,"Unus, Inc.",菲律宾 奎松城,socks5-proxy,socks5,Timeout
128.93.193.2:8080,128.93.193.2,8080,True,156.77,,unknown,通用,,,,通用,results,local-general,
129.97.50.72:443,129.97.50.72,443,True,60.34,,unknown,通用,,,,通用,results,local-general,
129.151.38.112:443,129.151.38.112,443,True,186.48,,unknown,通用,,,,通用,results,local-general,
129.151.160.199:443,129.151.160.199,443,True,284.34,,unknown,通用,,,,通用,results,local-general,
130.52.199.50:443,130.52.199.50,443,True,53.05,,unknown,通用,,,,通用,results,local-general,
130.61.198.164:443,130.61.198.164,443,True,153.85,,unknown,通用,,,,通用,results,local-general,
130.65.255.146:443,130.65.255.146,443,False,,,unknown,通用,,,,通用,results,local-general,Timeout
130.198.120.101:443,130.198.120.101,443,True,138.99,,unknown,通用,,,,通用,results,local-general,
130.198.120.102:443,130.198.120.102,443,True,138.8,,unknown,通用,,,,通用,results,local-general,
130.198.120.103:443,130.198.120.103,443,True,138.89,,unknown,通用,,,,通用,results,local-general,
130.198.120.104:443,130.198.120.104,443,True,138.52,,unknown,通用,,,,通用,results,local-general,
130.198.120.118:443,130.198.120.118,443,True,138.8,,unknown,通用,,,,通用,results,local-general,
130.198.120.119:443,130.198.120.119,443,True,138.99,,unknown,通用,,,,通用,results,local-general,
130.198.120.120:443,130.198.120.120,443,True,138.6,,unknown,通用,,,,通用,results,local-general,
130.198.120.121:443,130.198.120.121,443,True,138.66,,unknown,通用,,,,通用,results,local-general,
130.230.140.220:443,130.230.140.220,443,True,168.96,,unknown,通用,,,,通用,results,local-general,
130.253.2.250:443,130.253.2.250,443,True,27.9,,unknown,通用,,,,通用,results,local-general,
132.167.135.203:443,132.167.135.203,443,True,147.53,,unknown,通用,,,,通用,results,local-general,
132.167.135.208:443,132.167.135.208,443,True,147.29,,unknown,通用,,,,通用,results,local-general,
132.208.244.66:443,132.208.244.66,443,True,72.5,,unknown,通用,,,,通用,results,local-general,
133.167.87.173:443,133.167.87.173,443,True,111.83,,unknown,通用,,,,通用,results,local-general,
133.242.152.27:443,133.242.152.27,443,True,120.5,,unknown,通用,,,,通用,results,local-general,
134.0.63.185:443,134.0.63.185,443,True,180.29,,unknown,通用,,,,通用,results,local-general,
134.1.7.9:443,134.1.7.9,443,True,162.27,,unknown,通用,,,,通用,results,local-general,
134.209.15.92:443,134.209.15.92,443,True,2.34,,unknown,通用,,,,通用,results,local-general,
138.3.249.223:443,138.3.249.223,443,False,,,unknown,通用,,,,通用,results,local-general,Timeout
138.66.66.136:443,138.66.66.136,443,True,169.08,,unknown,通用,,,,通用,results,local-general,
138.108.28.48:443,138.108.28.48,443,True,55.71,,unknown,通用,,,,通用,results,local-general,
138.197.69.103:443,138.197.69.103,443,True,78.76,,unknown,通用,,,,通用,results,local-general,
139.129.230.30:443,139.129.230.30,443,True,217.02,,unknown,通用,,,,通用,results,local-general,
140.238.172.226:3000,140.238.172.226,3000,True,153.7,,unknown,通用,,,,通用,results,local-general,
140.238.248.0:443,140.238.248.0,443,True,230.48,,unknown,通用,,,,通用,results,local-general,
141.145.210.36:443,141.145.210.36,443,True,150.91,,unknown,通用,,,,通用,results,local-general,
144.91.90.109:443,144.91.90.109,443,True,151.23,,unknown,通用,,,,通用,results,local-general,
144.217.70.142:8088,144.217.70.142,8088,False,,,unknown,通用,,,,通用,results,local-general,Refused
146.48.93.16:443,146.48.93.16,443,True,165.95,,unknown,通用,,,,通用,results,local-general,
146.83.81.136:443,146.83.81.136,443,True,172.13,,unknown,通用,,,,通用,results,local-general,
146.177.5.114:8090,146.177.5.114,8090,True,150.87,,unknown,通用,,,,通用,results,local-general,
146.189.216.138:443,146.189.216.138,443,True,78.29,,unknown,通用,,,,通用,results,local-general,
146.189.216.139:443,146.189.216.139,443,True,78.14,,unknown,通用,,,,通用,results,local-general,
146.189.217.231:443,146.189.217.231,443,True,83.37,,unknown,通用,,,,通用,results,local-general,
147.160.161.12:8081,147.160.161.12,8081,True,34.81,,unknown,通用,,,,通用,results,local-general,
147.182.255.208:443,147.182.255.208,443,True,3.31,,unknown,通用,,,,通用,results,local-general,
148.243.232.49:443,148.243.232.49,443,True,69.08,,unknown,通用,,,,通用,results,local-general,
148.243.232.51:443,148.243.232.51,443,True,67.0,,unknown,通用,,,,通用,results,local-general,
149.202.3.144:443,149.202.3.144,443,False,,,unknown,通用,,,,通用,results,local-general,Timeout
149.210.158.107:5001,149.210.158.107,5001,True,154.39,,unknown,通用,,,,通用,results,local-general,
149.210.243.125:443,149.210.243.125,443,True,152.68,,unknown,通用,,,,通用,results,local-general,
150.109.243.38:1080,150.109.243.38,1080,False,,,unknown,韩国,,,,韩国,ResultsAHT,local-AHT,Timeout
150.136.9.146:443,150.136.9.146,443,True,71.73,,unknown,通用,,,,通用,results,local-general,
150.136.74.90:443,150.136.74.90,443,True,67.52,,unknown,通用,,,,通用,results,local-general,
152.70.202.146:443,152.70.202.146,443,True,65.91,,unknown,通用,,,,通用,results,local-general,
152.71.251.13:443,152.71.251.13,443,True,167.38,,unknown,通用,,,,通用,results,local-general,
154.72.197.188:443,154.72.197.188,443,True,280.34,,unknown,通用,,,,通用,results,local-general,
157.90.167.183:443,157.90.167.183,443,True,157.48,,unknown,通用,,,,通用,results,local-general,
157.245.96.148:443,157.245.96.148,443,True,241.21,,unknown,通用,,,,通用,results,local-general,
158.195.68.53:443,158.195.68.53,443,True,159.83,,unknown,通用,,,,通用,results,local-general,
158.197.16.250:443,158.197.16.250,443,True,164.71,,unknown,通用,,,,通用,results,local-general,
158.223.58.195:443,158.223.58.195,443,False,,,unknown,通用,,,,通用,results,local-general,Timeout
159.13.66.216:443,159.13.66.216,443,True,135.31,,unknown,通用,,,,通用,results,local-general,
159.84.183.244:443,159.84.183.244,443,False,,,unknown,通用,,,,通用,results,local-general,Timeout
159.203.22.247:443,159.203.22.247,443,True,60.24,,unknown,通用,,,,通用,results,local-general,
160.191.40.204:60001,160.191.40.204,60001,False,,,unknown,通用,,,,通用,results,local-general,Refused
160.242.47.197:443,160.242.47.197,443,True,288.33,,unknown,通用,,,,通用,results,local-general,
160.242.47.197:444,160.242.47.197,444,True,292.91,,unknown,通用,,,,通用,results,local-general,
160.251.208.112:443,160.251.208.112,443,True,121.55,,unknown,通用,,,,通用,results,local-general,
161.35.159.29:443,161.35.159.29,443,True,157.31,,unknown,通用,,,,通用,results,local-general,
161.35.227.149:443,161.35.227.149,443,True,2.64,,unknown,通用,,,,通用,results,local-general,
161.117.15.35:51001,161.117.15.35,51001,True,172.53,,unknown,韩国,,,,韩国,ResultsAHT,local-AHT,
162.55.97.61:443,162.55.97.61,443,True,158.0,,unknown,通用,,,,通用,results,local-general,
162.159.38.233:443,162.159.38.233,443,True,8.45,,unknown,,,,,,ipTop10.html,cloudflare,
162.159.39.119:443,162.159.39.119,443,True,8.61,,unknown,,,,,,ipTop10.html,cloudflare,
162.159.43.166:443,162.159.43.166,443,True,1.64,,unknown,,,,,,ipTop10.html,cloudflare,
162.159.44.31:443,162.159.44.31,443,True,8.87,,unknown,,,,,,ipTop10.html,cloudflare,
162.159.45.108:443,162.159.45.108,443,True,8.67,,unknown,,,,,,ipTop10.html,cloudflare,
162.247.78.194:443,162.247.78.194,443,True,51.61,,unknown,通用,,,,通用,results,local-general,
164.152.45.253:443,164.152.45.253,443,True,184.34,,unknown,通用,,,,通用,results,local-general,
164.160.68.11:443,164.160.68.11,443,True,328.14,,unknown,通用,,,,通用,results,local-general,
164.160.68.42:443,164.160.68.42,443,True,351.67,,unknown,通用,,,,通用,results,local-general,
165.22.60.108:443,165.22.60.108,443,True,178.62,,unknown,通用,,,,通用,results,local-general,
168.138.159.191:443,168.138.159.191,443,True,185.03,,unknown,通用,,,,通用,results,local-general,
168.167.220.27:443,168.167.220.27,443,True,295.27,,unknown,通用,,,,通用,results,local-general,
168.205.255.238:443,168.205.255.238,443,True,184.21,,unknown,通用,,,,通用,results,local-general,
170.40.178.81:443,170.40.178.81,443,True,45.21,,unknown,通用,,,,通用,results,local-general,
170.40.179.75:443,170.40.179.75,443,True,53.15,,unknown,通用,,,,通用,results,local-general,
170.40.179.127:443,170.40.179.127,443,True,45.89,,unknown,通用,,,,通用,results,local-general,
170.40.186.96:443,170.40.186.96,443,True,49.09,,unknown,通用,,,,通用,results,local-general,
170.40.186.118:443,170.40.186.118,443,True,44.12,,unknown,通用,,,,通用,results,local-general,
170.40.186.238:443,170.40.186.238,443,True,48.12,,unknown,通用,,,,通用,results,local-general,
170.40.186.244:443,170.40.186.244,443,True,52.13,,unknown,通用,,,,通用,results,local-general,
171.111.192.80:1080,171.111.192.80,1080,True,1215.06,,unknown,中国,,,,中国,ResultsCN,local-CN,
171.111.192.81:1080,171.111.192.81,1080,True,204.28,,unknown,中国,,,,中国,ResultsCN,local-CN,
171.111.192.84:1080,171.111.192.84,1080,True,204.26,,unknown,中国,,,,中国,ResultsCN,local-CN,
171.111.192.86:1080,171.111.192.86,1080,True,204.22,,unknown,中国,,,,中国,ResultsCN,local-CN,
171.111.192.90:1080,171.111.192.90,1080,True,207.29,,unknown,中国,,,,中国,ResultsCN,local-CN,
171.111.192.91:1080,171.111.192.91,1080,True,195.0,,unknown,中国,,,,中国,ResultsCN,local-CN,
171.111.192.92:1080,171.111.192.92,1080,True,2290.82,,unknown,中国,,,,中国,ResultsCN,local-CN,
171.111.192.93:1080,171.111.192.93,1080,True,1255.42,,unknown,中国,,,,中国,ResultsCN,local-CN,
171.111.192.94:1080,171.111.192.94,1080,True,206.39,,unknown,中国,,,,中国,ResultsCN,local-CN,
171.111.192.95:1080,171.111.192.95,1080,True,199.82,,unknown,中国,,,,中国,ResultsCN,local-CN,
171.111.192.97:1080,171.111.192.97,1080,True,200.62,,unknown,中国,,,,中国,ResultsCN,local-CN,
171.111.192.99:1080,171.111.192.99,1080,True,208.8,,unknown,中国,,,,中国,ResultsCN,local-CN,
171.111.192.100:1080,171.111.192.100,1080,True,205.19,,unknown,中国,,,,中国,ResultsCN,local-CN,
171.111.192.101:1080,171.111.192.101,1080,True,200.61,,unknown,中国,,,,中国,ResultsCN,local-CN,
171.111.192.102:1080,171.111.192.102,1080,True,197.21,,unknown,中国,,,,中国,ResultsCN,local-CN,
171.111.192.103:1080,171.111.192.103,1080,True,207.9,,unknown,中国,,,,中国,ResultsCN,local-CN,
171.111.192.104:1080,171.111.192.104,1080,True,193.11,,unknown,中国,,,,中国,ResultsCN,local-CN,
171.111.192.105:1080,171.111.192.105,1080,True,195.15,,unknown,中国,,,,中国,ResultsCN,local-CN,
171.111.192.106:1080,171.111.192.106,1080,True,202.44,,unknown,中国,,,,中国,ResultsCN,local-CN,
171.111.192.107:1080,171.111.192.107,1080,True,195.82,,unknown,中国,,,,中国,ResultsCN,local-CN,
171.252.128.238:1080,171.252.128.238,1080,True,207.05,机房,datacenter,越南,,,Viettel Group,越南,socks5-proxy,socks5,
172.64.52.2:443,172.64.52.2,443,True,1.6,,unknown,,,,,,ipTop10.html,cloudflare,
172.64.53.190:443,172.64.53.190,443,True,1.72,,unknown,,,,,,ipTop10.html,cloudflare,
172.64.80.208:443,172.64.80.208,443,True,1.66,,unknown,,,,,,edgetunnel-output,cloudflare,
172.64.85.81:443,172.64.85.81,443,True,1.67,,unknown,,,,,,edgetunnel-output,cloudflare,
172.64.155.29:443,172.64.155.29,443,True,1.5,,unknown,,,,,,bestcf,proxy,
172.64.159.0:443,172.64.159.0,443,True,1.85,,unknown,,,,,,ipTop10.html,cloudflare,
172.64.229.63:443,172.64.229.63,443,True,1.64,,unknown,,,,,,ipTop10.html,cloudflare,
172.65.165.62:1080,172.65.165.62,1080,True,1.78,,unknown,韩国,,,,韩国,ResultsAHT,local-AHT,
172.65.236.107:1080,172.65.236.107,1080,True,1.51,,unknown,韩国,,,,韩国,ResultsAHT,local-AHT,
172.66.0.123:443,172.66.0.123,443,True,1.89,,unknown,,,,,,edgetunnel-output,cloudflare,
172.66.41.212:443,172.66.41.212,443,True,1.95,,unknown,,,,,,edgetunnel-output,cloudflare,
172.66.154.234:443,172.66.154.234,443,True,2.1,,unknown,,,,,,edgetunnel-output,cloudflare,
172.67.93.167:443,172.67.93.167,443,True,1.75,,unknown,,,,,,edgetunnel-output,cloudflare,
172.67.129.215:443,172.67.129.215,443,True,1.55,,unknown,,,,,,edgetunnel-output,cloudflare,
172.67.145.0:443,172.67.145.0,443,True,1.99,,unknown,,,,,,edgetunnel-output,cloudflare,
172.67.198.6:443,172.67.198.6,443,True,1.93,,unknown,,,,,,edgetunnel-output,cloudflare,
172.210.64.27:443,172.210.64.27,443,True,66.97,,unknown,通用,,,,通用,results,local-general,
173.165.51.237:443,173.165.51.237,443,False,,,unknown,通用,,,,通用,results,local-general,Timeout
173.212.253.71:443,173.212.253.71,443,True,151.12,,unknown,通用,,,,通用,results,local-general,
175.134.18.237:443,175.134.18.237,443,True,110.71,,unknown,通用,,,,通用,results,local-general,
176.102.64.4:443,176.102.64.4,443,True,164.31,,unknown,通用,,,,通用,results,local-general,
176.173.102.96:443,176.173.102.96,443,False,,,unknown,通用,,,,通用,results,local-general,Timeout
176.190.167.54:443,176.190.167.54,443,True,157.99,,unknown,通用,,,,通用,results,local-general,
176.221.48.127:8080,176.221.48.127,8080,True,164.28,,unknown,通用,,,,通用,results,local-general,
176.221.48.130:8080,176.221.48.130,8080,True,157.64,,unknown,通用,,,,通用,results,local-general,
178.115.238.253:443,178.115.238.253,443,True,279.81,,unknown,通用,,,,通用,results,local-general,
178.237.108.214:443,178.237.108.214,443,True,154.14,,unknown,通用,,,,通用,results,local-general,
180.97.151.115:443,180.97.151.115,443,True,224.66,,unknown,通用,,,,通用,results,local-general,
180.100.200.64:1080,180.100.200.64,1080,False,,,unknown,中国,,,,中国,ResultsCN,local-CN,Timeout
180.100.207.92:1080,180.100.207.92,1080,False,,,unknown,中国,,,,中国,ResultsCN,local-CN,Timeout
180.100.216.41:1080,180.100.216.41,1080,False,,,unknown,中国,,,,中国,ResultsCN,local-CN,Timeout
180.106.150.72:1080,180.106.150.72,1080,False,,,unknown,中国,,,,中国,ResultsCN,local-CN,Timeout
180.108.46.68:1080,180.108.46.68,1080,False,,,unknown,中国,,,,中国,ResultsCN,local-CN,Timeout
180.108.64.113:1080,180.108.64.113,1080,False,,,unknown,中国,,,,中国,ResultsCN,local-CN,Refused
180.109.251.159:1080,180.109.251.159,1080,False,,,unknown,中国,,,,中国,ResultsCN,local-CN,Timeout
180.109.252.141:1080,180.109.252.141,1080,False,,,unknown,中国,,,,中国,ResultsCN,local-CN,Timeout
180.110.63.8:1080,180.110.63.8,1080,False,,,unknown,中国,,,,中国,ResultsCN,local-CN,Timeout
181.126.49.38:443,181.126.49.38,443,True,236.06,,unknown,通用,,,,通用,results,local-general,
181.191.209.142:443,181.191.209.142,443,True,175.17,,unknown,通用,,,,通用,results,local-general,
184.178.223.107:443,184.178.223.107,443,False,,,unknown,通用,,,,通用,results,local-general,Timeout
184.184.156.99:443,184.184.156.99,443,False,,,unknown,通用,,,,通用,results,local-general,Timeout
184.184.156.106:443,184.184.156.106,443,False,,,unknown,通用,,,,通用,results,local-general,Timeout
184.189.100.146:443,184.189.100.146,443,False,,,unknown,通用,,,,通用,results,local-general,Timeout
184.189.100.163:443,184.189.100.163,443,False,,,unknown,通用,,,,通用,results,local-general,Timeout
185.35.199.212:5443,185.35.199.212,5443,True,168.99,,unknown,通用,,,,通用,results,local-general,
185.38.226.210:5443,185.38.226.210,5443,True,191.15,,unknown,通用,,,,通用,results,local-general,
185.96.121.243:9443,185.96.121.243,9443,True,177.65,,unknown,通用,,,,通用,results,local-general,
185.108.4.61:443,185.108.4.61,443,True,1220.39,,unknown,通用,,,,通用,results,local-general,
185.149.37.14:443,185.149.37.14,443,True,154.82,,unknown,通用,,,,通用,results,local-general,
185.245.136.61:443,185.245.136.61,443,True,147.58,,unknown,通用,,,,通用,results,local-general,
185.245.136.97:443,185.245.136.97,443,True,147.36,,unknown,通用,,,,通用,results,local-general,
185.250.133.35:443,185.250.133.35,443,True,191.05,,unknown,通用,,,,通用,results,local-general,
187.217.197.236:81,187.217.197.236,81,True,64.94,,unknown,通用,,,,通用,results,local-general,
188.149.123.87:8181,188.149.123.87,8181,True,167.49,,unknown,通用,,,,通用,results,local-general,
188.212.125.178:443,188.212.125.178,443,True,156.38,,unknown,通用,,,,通用,results,local-general,
189.39.119.69:443,189.39.119.69,443,True,175.21,,unknown,通用,,,,通用,results,local-general,
189.50.88.34:443,189.50.88.34,443,True,1247.99,,unknown,通用,,,,通用,results,local-general,
189.129.49.161:443,189.129.49.161,443,False,,,unknown,通用,,,,通用,results,local-general,Timeout
190.85.38.67:443,190.85.38.67,443,True,117.18,,unknown,通用,,,,通用,results,local-general,
190.113.112.147:443,190.113.112.147,443,True,115.08,,unknown,通用,,,,通用,results,local-general,
190.145.153.94:443,190.145.153.94,443,True,104.32,,unknown,通用,,,,通用,results,local-general,
190.149.62.28:443,190.149.62.28,443,True,91.9,,unknown,通用,,,,通用,results,local-general,
190.196.167.133:443,190.196.167.133,443,True,153.02,,unknown,通用,,,,通用,results,local-general,
192.95.37.111:443,192.95.37.111,443,True,65.09,,unknown,通用,,,,通用,results,local-general,
192.126.96.110:443,192.126.96.110,443,True,73.29,,unknown,通用,,,,通用,results,local-general,
192.145.31.78:1080,192.145.31.78,1080,True,145.5,机房,datacenter,荷兰,弗莱福兰省,德龙滕,Baykov Ilya Sergeevich,荷兰 德龙滕,socks5-proxy,socks5,
192.145.31.160:1080,192.145.31.160,1080,True,149.11,机房,datacenter,荷兰,弗莱福兰省,德龙滕,Baykov Ilya Sergeevich,荷兰 德龙滕,socks5-proxy,socks5,
192.154.227.9:3001,192.154.227.9,3001,True,41.16,,unknown,通用,,,,通用,results,local-general,
192.177.75.187:443,192.177.75.187,443,True,226.89,,unknown,通用,,,,通用,results,local-general,
192.241.156.17:1080,192.241.156.17,1080,True,77.66,机房,datacenter,美国,新泽西州,北伯根,"DigitalOcean, LLC",美国 北伯根,socks5-proxy,socks5,
193.25.2.239:443,193.25.2.239,443,True,170.16,,unknown,通用,,,,通用,results,local-general,
193.49.168.97:443,193.49.168.97,443,True,147.39,,unknown,通用,,,,通用,results,local-general,
193.49.168.100:443,193.49.168.100,443,True,147.48,,unknown,通用,,,,通用,results,local-general,
193.77.81.97:443,193.77.81.97,443,True,160.9,,unknown,通用,,,,通用,results,local-general,
193.136.192.57:443,193.136.192.57,443,True,171.37,,unknown,通用,,,,通用,results,local-general,
193.137.38.135:443,193.137.38.135,443,True,174.0,,unknown,通用,,,,通用,results,local-general,
193.176.40.123:443,193.176.40.123,443,True,172.83,,unknown,通用,,,,通用,results,local-general,
193.226.205.54:443,193.226.205.54,443,True,161.8,,unknown,通用,,,,通用,results,local-general,
194.5.157.218:443,194.5.157.218,443,False,,,unknown,通用,,,,通用,results,local-general,Refused
194.87.98.70:443,194.87.98.70,443,True,185.61,,unknown,通用,,,,通用,results,local-general,
194.195.87.167:8080,194.195.87.167,8080,True,155.21,,unknown,通用,,,,通用,results,local-general,
194.195.87.167:8081,194.195.87.167,8081,True,160.24,,unknown,通用,,,,通用,results,local-general,
194.199.191.190:443,194.199.191.190,443,True,156.34,,unknown,通用,,,,通用,results,local-general,
194.249.231.22:443,194.249.231.22,443,True,170.87,,unknown,通用,,,,通用,results,local-general,
195.14.103.106:9090,195.14.103.106,9090,True,160.02,,unknown,通用,,,,通用,results,local-general,
195.43.52.155:443,195.43.52.155,443,False,,,unknown,通用,,,,通用,results,local-general,Timeout
195.154.187.64:443,195.154.187.64,443,True,155.43,,unknown,通用,,,,通用,results,local-general,
195.181.220.235:443,195.181.220.235,443,True,163.67,,unknown,通用,,,,通用,results,local-general,
195.182.74.93:443,195.182.74.93,443,True,180.34,,unknown,通用,,,,通用,results,local-general,
195.182.74.94:443,195.182.74.94,443,True,172.34,,unknown,通用,,,,通用,results,local-general,
195.192.209.130:443,195.192.209.130,443,True,163.58,,unknown,通用,,,,通用,results,local-general,
195.200.166.126:443,195.200.166.126,443,True,168.45,,unknown,通用,,,,通用,results,local-general,
195.226.192.86:1080,195.226.192.86,1080,True,170.19,机房,datacenter,乌克兰,赫梅利尼茨基州,赫梅利尼茨基,Mulgin Alexander Sergeevich,乌克兰 赫梅利尼茨基,socks5-proxy,socks5,
196.12.10.194:443,196.12.10.194,443,True,310.24,,unknown,通用,,,,通用,results,local-general,
196.21.60.44:443,196.21.60.44,443,True,292.59,,unknown,通用,,,,通用,results,local-general,
196.21.61.67:443,196.21.61.67,443,True,291.14,,unknown,通用,,,,通用,results,local-general,
196.21.109.82:443,196.21.109.82,443,True,288.36,,unknown,通用,,,,通用,results,local-general,
198.54.223.176:443,198.54.223.176,443,True,266.08,,unknown,通用,,,,通用,results,local-general,
198.71.61.207:443,198.71.61.207,443,True,58.22,,unknown,通用,,,,通用,results,local-general,
200.23.153.161:443,200.23.153.161,443,True,173.24,,unknown,通用,,,,通用,results,local-general,
200.133.218.122:443,200.133.218.122,443,True,184.44,,unknown,通用,,,,通用,results,local-general,
200.249.205.36:443,200.249.205.36,443,True,180.3,,unknown,通用,,,,通用,results,local-general,
201.54.216.54:443,201.54.216.54,443,True,176.37,,unknown,通用,,,,通用,results,local-general,
202.43.240.2:443,202.43.240.2,443,True,115.35,,unknown,通用,,,,通用,results,local-general,
202.75.55.100:443,202.75.55.100,443,True,180.67,,unknown,通用,,,,通用,results,local-general,
203.126.53.78:443,203.126.53.78,443,True,175.01,,unknown,通用,,,,通用,results,local-general,
203.193.169.112:443,203.193.169.112,443,True,231.41,,unknown,通用,,,,通用,results,local-general,
203.236.17.77:8104,203.236.17.77,8104,True,130.53,,unknown,通用,,,,通用,results,local-general,
203.246.113.240:443,203.246.113.240,443,True,130.09,,unknown,通用,,,,通用,results,local-general,
204.41.16.187:443,204.41.16.187,443,True,62.1,,unknown,通用,,,,通用,results,local-general,
204.41.17.71:443,204.41.17.71,443,True,61.18,,unknown,通用,,,,通用,results,local-general,
204.41.17.72:443,204.41.17.72,443,True,66.87,,unknown,通用,,,,通用,results,local-general,
205.178.144.247:8443,205.178.144.247,8443,True,60.59,,unknown,通用,,,,通用,results,local-general,
206.189.71.68:443,206.189.71.68,443,False,,,unknown,通用,,,,通用,results,local-general,Timeout
207.180.228.55:443,207.180.228.55,443,True,150.73,,unknown,通用,,,,通用,results,local-general,
208.169.72.50:443,208.169.72.50,443,True,88.93,,unknown,通用,,,,通用,results,local-general,
209.63.239.148:443,209.63.239.148,443,True,30.31,,unknown,通用,,,,通用,results,local-general,
210.19.96.163:443,210.19.96.163,443,True,187.37,,unknown,通用,,,,通用,results,local-general,
210.48.154.99:443,210.48.154.99,443,True,181.77,,unknown,通用,,,,通用,results,local-general,
210.89.42.118:443,210.89.42.118,443,True,247.88,,unknown,通用,,,,通用,results,local-general,
210.89.42.212:443,210.89.42.212,443,True,246.9,,unknown,通用,,,,通用,results,local-general,
210.169.191.161:443,210.169.191.161,443,False,,,unknown,通用,,,,通用,results,local-general,Refused
211.24.97.234:8009,211.24.97.234,8009,True,180.87,,unknown,通用,,,,通用,results,local-general,
211.25.237.139:443,211.25.237.139,443,True,178.54,,unknown,通用,,,,通用,results,local-general,
211.34.105.110:4443,211.34.105.110,4443,True,129.67,,unknown,通用,,,,通用,results,local-general,
212.30.81.6:443,212.30.81.6,443,True,176.24,,unknown,通用,,,,通用,results,local-general,
212.243.240.120:443,212.243.240.120,443,True,159.24,,unknown,通用,,,,通用,results,local-general,
213.96.140.33:443,213.96.140.33,443,False,,,unknown,通用,,,,通用,results,local-general,Timeout
213.108.217.160:1080,213.108.217.160,1080,True,193.78,机房,datacenter,挪威,西福尔郡,桑德尔福德,GIGAHOST V6,挪威 桑德尔福德,socks5-proxy,socks5,
213.241.124.228:443,213.241.124.228,443,True,175.73,,unknown,通用,,,,通用,results,local-general,
217.108.126.106:443,217.108.126.106,443,False,,,unknown,通用,,,,通用,results,local-general,Timeout
217.160.25.90:443,217.160.25.90,443,True,170.87,,unknown,通用,,,,通用,results,local-general,
218.78.1.8:1080,218.78.1.8,1080,False,,,unknown,中国,,,,中国,ResultsCN,local-CN,Refused
218.78.69.108:1080,218.78.69.108,1080,False,,,unknown,中国,,,,中国,ResultsCN,local-CN,Refused
218.78.94.56:1080,218.78.94.56,1080,False,,,unknown,中国,,,,中国,ResultsCN,local-CN,Refused
218.78.104.148:1080,218.78.104.148,1080,False,,,unknown,中国,,,,中国,ResultsCN,local-CN,Refused
221.225.80.7:1080,221.225.80.7,1080,False,,,unknown,中国,,,,中国,ResultsCN,local-CN,Timeout
223.166.145.174:1080,223.166.145.174,1080,True,191.45,机房,datacenter,中国,香港,香港,NEWRUI LIMITED,中国 香港,socks5-proxy,socks5,
